# 2012 12 24 07 31 47.2  -09.39    110.14     10.0  3.7   0.0   0.0   1.943       188
 PCJI       24.40   1.000   P
 WOJI       28.70   1.000   P
 PWJI       34.10   1.000   P
 SWJI       36.10   1.000   P
 CMJI       36.50   1.000   P
 KPJI       40.10   1.000   P
 NGJI       41.00   1.000   P
 SMRI       41.90   1.000   P
 CTJI       44.60   1.000   P
 PWJI       59.50   1.000   S
 CMJI       64.80   1.000   S
 SWJI       68.90   1.000   S
# 2012 12 24 08 36 49.9  -09.48    110.20     10.0  4.0   0.0   0.0   1.196       189
 PCJI       25.60   1.000   P
 WOJI       29.70   1.000   P
 PWJI       34.40   1.000   P
 SCJI       35.70   1.000   P
 SWJI       37.30   1.000   P
 CMJI       37.70   1.000   P
 KPJI       41.20   1.000   P
 SMRI       41.30   1.000   P
 NGJI       42.30   1.000   P
 CTJI       43.70   1.000   P
 PCJI       50.50   1.000   S
 WOJI       53.20   1.000   S
 GMJI       53.80   1.000   P
 SCJI       60.80   1.000   S
 PWJI       60.90   1.000   S
 JAGI       60.90   1.000   P
 NGJI       71.10   1.000   S
 SMRI       71.50   1.000   S
 KPJI       71.90   1.000   S
# 2012 12 25 19 53 20.3  -08.66    111.54     48.0  3.2   0.0   0.0   0.804       190
 PCJI       11.80   1.000   P
 PWJI       13.40   1.000   P
 SWJI       17.30   1.000   P
 WOJI       18.50   1.000   P
 PWJI       22.90   1.000   S
 SWJI       29.40   1.000   S
 GMJI       30.50   1.000   P
 WOJI       31.60   1.000   S
 JAGI       39.60   1.000   P
 BYJI       40.80   1.000   P
 GMJI       54.50   1.000   S
# 2012 12 27 04 12 30.6  -09.07    112.03    127.0  3.8   0.0   0.0   0.749       191
 PWJI       22.90   1.000   P
 PCJI       23.70   1.000   P
 SWJI       27.30   1.000   P
 GMJI       29.00   1.000   P
 WOJI       30.80   1.000   P
 GRJI       36.40   1.000   P
 PWJI       39.40   1.000   S
 WOJI       52.50   1.000   S
 KPJI       52.50   1.000   P
 CMJI       57.60   1.000   P
# 2012 12 27 07 27 54.5  -07.65    110.00    259.0  3.2   0.0   0.0   0.703       192
 SMRI       34.00   1.000   P
 CTJI       35.90   1.000   P
 WOJI       36.00   1.000   P
 KPJI       37.50   1.000   P
 PCJI       38.60   1.000   P
 NGJI       39.30   1.000   P
 CMJI       40.40   1.000   P
 SWJI       41.10   1.000   P
 PWJI       41.90   1.000   P
 WOJI       64.60   1.000   S
 KPJI       67.30   1.000   S
 PCJI       68.80   1.000   S
 CMJI       70.50   1.000   S
 PWJI       75.30   1.000   S
# 2013 01 01 20 56 27.8  -08.02    111.67     98.0  3.3   0.0   0.0   0.817       193
 PWJI       14.90   1.000   P
 SWJI       15.20   1.000   P
 WOJI       18.40   1.000   P
 NGJI       19.00   1.000   P
 GMJI       29.50   1.000   P
 CTJI       39.40   1.000   P
 KPJI       44.20   1.000   P
# 2013 01 02 12 41 12.6  -08.88    112.54     30.0  3.9   0.0   0.0   0.685       194
 JAGI       26.20   1.000   P
 WOJI       30.20   1.000   P
 KMMI       36.10   1.000   P
# 2013 01 03 18 24 44.8  -08.62    110.40     56.0  3.0   0.0   0.0   0.672       195
 PCJI       15.70   1.000   P
 WOJI       17.80   1.000   P
 PWJI       25.00   1.000   P
 SWJI       25.60   1.000   P
 WOJI       30.90   1.000   S
 CMJI       33.30   1.000   P
 JAGI       54.20   1.000   P
 CMJI       57.80   1.000   S
# 2013 01 13 03 13 51.3  -09.62    112.84     10.0  4.6   0.0   0.0   1.045       196
 GMJI       24.50   1.000   P
 JAGI       28.60   1.000   P
 PWJI       30.90   1.000   P
 BYJI       34.80   1.000   P
 SWJI       35.00   1.000   P
 PCJI       35.10   1.000   P
 GRJI       43.80   1.000   P
 NGJI       44.60   1.000   P
 KMMI       45.60   1.000   P
 TBJI       48.10   1.000   P
 SMRI       54.70   1.000   P
 KPJI       67.30   1.000   P
 CMJI       69.50   1.000   P
# 2013 01 14 07 36 11.3  -09.49    112.87     11.0  4.5   0.0   0.0   0.705       197
 GMJI       23.20   1.000   P
 JAGI       27.50   1.000   P
 PWJI       29.80   1.000   P
 BYJI       33.40   1.000   P
 SWJI       34.20   1.000   P
 PCJI       34.30   1.000   P
 WOJI       40.40   1.000   P
 GMJI       41.40   1.000   S
 GRJI       43.60   1.000   P
 KMMI       44.30   1.000   P
 TBJI       45.80   1.000   P
 JAGI       49.60   1.000   S
 PCJI       62.10   1.000   S
 SCJI       62.30   1.000   P
 SWJI       62.30   1.000   S
 KPJI       67.10   1.000   P
 CTJI       67.40   1.000   P
 CMJI       71.30   1.000   P
 WOJI       71.40   1.000   S
 JCJI       78.90   1.000   P
  LEM       86.40   1.000   P
 CBJI       95.90   1.000   P
 SKJI       98.70   1.000   P
# 2013 01 14 08 34 46.4  -09.47    112.94     12.0  3.3   0.0   0.0   0.178       198
 GMJI       22.90   1.000   P
 JAGI       26.80   1.000   P
 PWJI       28.50   1.000   P
 BYJI       31.20   1.000   P
 SWJI       34.10   1.000   P
 PCJI       35.40   1.000   P
 GMJI       40.60   1.000   S
 JAGI       47.70   1.000   S
 PWJI       50.70   1.000   S
# 2013 01 16 22 41 39.8  -11.42    112.56     34.0  4.5   0.0   0.0   0.965       199
 GMJI       48.20   1.000   P
 JAGI       49.60   1.000   P
 PWJI       49.80   1.000   P
 PCJI       50.10   1.000   P
 SWJI       54.50   1.000   P
 GRJI       64.20   1.000   P
 KMMI       68.30   1.000   P
 SMRI       71.50   1.000   P
 SCJI       72.10   1.000   P
 CMJI       77.50   1.000   P
 KPJI       79.60   1.000   P
 CTJI       80.20   1.000   P
 GMJI       85.50   1.000   S
 PWJI       89.30   1.000   S
# 2013 01 17 03 45 45.3  -10.13    111.77     10.0  3.6   0.0   0.0   0.898       200
 PCJI       33.20   1.000   P
 PWJI       34.20   1.000   P
 SWJI       38.90   1.000   P
 NGJI       44.40   1.000   P
 PCJI       59.30   1.000   S
 SWJI       70.60   1.000   S
# 2013 01 17 19 22 25.1  -08.12    112.51     17.0  2.3   0.0   0.0   0.786       201
 PWJI       14.80   1.000   P
 SWJI       15.90   1.000   P
 NGJI       21.60   1.000   P
 PWJI       24.10   1.000   S
 PCJI       24.90   1.000   P
 SWJI       28.80   1.000   S
 NGJI       39.90   1.000   S
 PCJI       40.40   1.000   S
# 2013 01 18 20 53 47.4  -08.88    112.86     22.0  3.2   0.0   0.0   0.446       202
 GMJI       16.30   1.000   P
 PWJI       22.20   1.000   P
 JAGI       23.10   1.000   P
 SWJI       26.10   1.000   P
 PWJI       38.80   1.000   S
# 2013 01 20 16 33 45.1  -08.77    111.36     39.0  4.0   0.0   0.0   0.678       203
 PCJI       11.90   1.000   P
 PWJI       14.60   1.000   P
 WOJI       17.80   1.000   P
 SWJI       18.90   1.000   P
 PCJI       22.10   1.000   S
 NGJI       23.80   1.000   P
 PWJI       27.00   1.000   S
 SMRI       30.70   1.000   P
 WOJI       30.90   1.000   S
 GMJI       33.00   1.000   P
 SWJI       33.40   1.000   S
 GRJI       33.60   1.000   P
 JAGI       41.50   1.000   P
 CTJI       42.80   1.000   P
 KPJI       42.80   1.000   P
 CMJI       45.30   1.000   P
# 2013 01 22 23 53 50.5  -08.79    110.55     10.0  3.0   0.0   0.0   0.347       204
 PCJI       16.20   1.000   P
 WOJI       19.00   1.000   P
 PWJI       25.40   1.000   P
 SWJI       28.20   1.000   P
 PCJI       28.70   1.000   S
 WOJI       33.80   1.000   S
 SWJI       49.60   1.000   S
# 2013 01 23 06 51 12.1  -08.83    110.46     17.0  3.2   0.0   0.0   0.746       205
 PCJI       17.70   1.000   P
 PWJI       26.60   1.000   P
 SCJI       28.70   1.000   P
 PCJI       30.10   1.000   S
 WOJI       35.10   1.000   P
 KPJI       35.10   1.000   P
 CMJI       35.60   1.000   P
 PWJI       45.40   1.000   S
# 2013 01 23 14 26 43.5  -10.55    112.34     10.0  3.8   0.0   0.0   0.849       206
 PWJI       40.20   1.000   P
 GMJI       40.30   1.000   P
 PCJI       40.30   1.000   P
 JAGI       43.90   1.000   P
 GMJI       72.70   1.000   S
 PCJI       73.60   1.000   S
# 2013 01 28 05 57 40.9  -06.91    112.54     10.0  2.8   0.0   0.0   1.423       207
 GRJI        1.50   1.000   P
 GRJI        5.00   1.000   S
 TBJI       12.70   1.000   P
 SWJI       21.30   1.000   P
 PWJI       22.90   1.000   P
 TBJI       22.90   1.000   S
 NGJI       23.20   1.000   P
 KMMI       24.10   1.000   P
 PCJI       32.00   1.000   P
# 2013 01 31 03 10 06.6  -09.25    111.03     88.0  3.6   0.0   0.0   0.925       208
 PCJI       19.60   1.000   P
 PWJI       24.50   1.000   P
 WOJI       24.60   1.000   P
 SWJI       28.30   1.000   P
 NGJI       31.20   1.000   P
 PCJI       34.40   1.000   S
 GMJI       39.00   1.000   P
 KPJI       42.40   1.000   P
 PWJI       43.10   1.000   S
 WOJI       43.50   1.000   S
 CMJI       45.80   1.000   P
 JAGI       47.10   1.000   P
 CMJI       79.40   1.000   S
# 2013 02 01 12 38 51.4  -09.23    112.94     39.0  3.3   0.0   0.0   0.637       209
 GMJI       18.30   1.000   P
 JAGI       22.60   1.000   P
 PWJI       25.40   1.000   P
 PCJI       29.60   1.000   P
 SWJI       30.00   1.000   P
 GMJI       32.80   1.000   S
 WOJI       37.60   1.000   P
 JAGI       41.20   1.000   S
 PWJI       43.50   1.000   S
 SWJI       53.20   1.000   S
 PCJI       57.20   1.000   S
 WOJI       67.70   1.000   S
# 2013 02 01 14 32 43.6  -08.05    110.91    173.0  3.6   0.0   0.0   0.511       210
 PCJI       24.20   1.000   P
 WOJI       24.20   1.000   P
 NGJI       26.70   1.000   P
 SWJI       27.00   1.000   P
 PWJI       27.30   1.000   P
 KPJI       37.80   1.000   P
 CMJI       42.20   1.000   P
 PCJI       42.40   1.000   S
 WOJI       42.60   1.000   S
 GMJI       42.90   1.000   P
 SWJI       46.90   1.000   S
 PWJI       48.10   1.000   S
 JAGI       50.30   1.000   P
 KPJI       68.10   1.000   S
 GMJI       76.20   1.000   S
# 2013 02 02 03 47 03.2  -09.53    112.93     10.0  3.9   0.0   0.0   1.290       211
 GMJI       22.60   1.000   P
 JAGI       26.60   1.000   P
 PWJI       30.30   1.000   P
 SWJI       33.40   1.000   P
 PCJI       34.60   1.000   P
 KMMI       43.40   1.000   P
 GRJI       43.90   1.000   P
 NGJI       44.70   1.000   P
# 2013 02 02 10 17 17.6  -09.33    112.99     10.0  3.8   0.0   0.0   1.661       212
 JAGI       26.50   1.000   P
 PWJI       30.10   1.000   P
 SWJI       33.80   1.000   P
 PCJI       33.90   1.000   P
 WOJI       39.20   1.000   P
 JAGI       41.90   1.000   S
# 2013 02 02 10 23 15.2  -09.57    112.89     13.0  3.9   0.0   0.0   0.371       213
 JAGI       27.10   1.000   P
 PCJI       34.90   1.000   P
 GRJI       42.60   1.000   P
# 2013 02 02 11 54 04.1  -09.69    112.92     10.0  4.6   0.0   0.0   1.083       214
 JAGI       27.80   1.000   P
 PWJI       31.80   1.000   P
 SWJI       35.70   1.000   P
 PCJI       36.10   1.000   P
 WOJI       42.60   1.000   P
 KMMI       44.80   1.000   P
 GRJI       45.00   1.000   P
 NGJI       45.50   1.000   P
 TBJI       48.80   1.000   P
 SMRI       55.90   1.000   P
 KPJI       69.50   1.000   P
 CTJI       70.50   1.000   P
 CMJI       71.70   1.000   P
# 2013 02 04 08 58 41.2  -08.69    111.19     40.0  3.2   0.0   0.0   0.645       215
 PCJI       11.00   1.000   P
 PWJI       16.00   1.000   P
 WOJI       16.30   1.000   P
 SWJI       19.90   1.000   P
 NGJI       21.80   1.000   P
 SMRI       28.30   1.000   P
 GMJI       34.80   1.000   P
# 2013 02 05 10 08 10.8  -09.09    110.58     30.0  4.6   0.0   0.0   1.106       216
 PCJI       17.10   1.000   P
 WOJI       21.90   1.000   P
 PWJI       25.60   1.000   P
 SWJI       29.00   1.000   P
 PCJI       30.70   1.000   S
 SCJI       31.30   1.000   P
 SMRI       34.50   1.000   P
 CMJI       37.60   1.000   P
 WOJI       38.40   1.000   S
 KPJI       38.50   1.000   P
 CTJI       40.10   1.000   P
 GMJI       44.00   1.000   P
 GRJI       44.80   1.000   P
 PWJI       44.90   1.000   S
 JCJI       46.90   1.000   P
 SWJI       51.80   1.000   S
 JAGI       53.40   1.000   P
 SCJI       55.50   1.000   S
 ABJI       57.80   1.000   P
 KMMI       58.50   1.000   P
 CBJI       65.20   1.000   P
 SKJI       65.90   1.000   P
 DBJI       66.90   1.000   P
 CMJI       66.90   1.000   S
 GMJI       79.00   1.000   S
 JCJI       89.20   1.000   S
# 2013 02 05 10 32 21.8  -09.17    110.54     16.0  3.4   0.0   0.0   1.407       217
 PCJI       19.50   1.000   P
 WOJI       24.20   1.000   P
 PWJI       28.20   1.000   P
 SWJI       31.10   1.000   P
 SCJI       33.00   1.000   P
 NGJI       35.80   1.000   P
 SMRI       36.00   1.000   P
 CMJI       38.80   1.000   P
 WOJI       40.70   1.000   S
 CTJI       41.10   1.000   P
 PWJI       47.20   1.000   S
 SWJI       53.60   1.000   S
 SCJI       57.10   1.000   S
 SMRI       64.00   1.000   S
 CMJI       69.20   1.000   S
 CTJI       73.20   1.000   S
# 2013 02 05 12 01 50.7  -09.14    110.56     10.0  3.7   0.0   0.0   0.892       218
 PCJI       19.70   1.000   P
 WOJI       24.10   1.000   P
 PWJI       28.10   1.000   P
 SWJI       31.30   1.000   P
 SCJI       33.10   1.000   P
 SMRI       36.70   1.000   P
 CMJI       39.80   1.000   P
 KPJI       40.20   1.000   P
 CTJI       42.30   1.000   P
 GRJI       46.00   1.000   P
 GMJI       46.60   1.000   P
 PWJI       47.60   1.000   S
 JAGI       55.00   1.000   P
 ABJI       59.50   1.000   P
# 2013 02 06 16 26 48.6  -07.95    110.12    111.0  3.7   0.0   0.0   0.330       219
 WOJI       19.80   1.000   P
 SMRI       21.10   1.000   P
 PCJI       22.80   1.000   P
 CTJI       25.00   1.000   P
 KPJI       25.60   1.000   P
 NGJI       27.10   1.000   P
 SWJI       28.80   1.000   P
 PWJI       28.90   1.000   P
 CMJI       28.90   1.000   P
 GRJI       39.80   1.000   P
  LEM       42.50   1.000   P
 NGJI       46.90   1.000   S
 GMJI       49.60   1.000   P
 CMJI       51.30   1.000   S
 DBJI       54.70   1.000   P
 KMMI       57.40   1.000   P
 JAGI       59.80   1.000   P
# 2013 02 07 15 37 58.1  -09.53    112.95     18.0  3.9   0.0   0.0   0.893       220
 GMJI       22.10   1.000   P
 JAGI       26.00   1.000   P
 PWJI       29.80   1.000   P
 SWJI       34.20   1.000   P
 PCJI       34.40   1.000   P
 ABJI       36.20   1.000   P
 KMMI       42.90   1.000   P
 GRJI       43.50   1.000   P
 PWJI       52.30   1.000   S
 ABJI       61.30   1.000   S
 SWJI       61.70   1.000   S
 NGJI       73.40   1.000   P
 GRJI       73.80   1.000   S
# 2013 02 08 01 07 53.8  -09.28    110.08     23.0  4.4   0.0   0.0   0.526       221
 PCJI       25.10   1.000   P
 PWJI       33.50   1.000   P
 CMJI       35.40   1.000   P
 SMRI       36.10   1.000   P
 SWJI       36.10   1.000   P
 KPJI       36.30   1.000   P
 CTJI       38.90   1.000   P
 GRJI       50.90   1.000   P
 GMJI       52.60   1.000   P
 CBJI       60.30   1.000   P
 JAGI       61.50   1.000   P
 CTJI       67.80   1.000   S
# 2013 02 11 16 56 44.6  -08.61    111.44     22.0  2.9   0.0   0.0   0.050       222
 PCJI       11.00   1.000   P
 PWJI       11.70   1.000   P
 WOJI       17.40   1.000   P
 SWJI       17.50   1.000   P
 PCJI       19.00   1.000   S
 NGJI       21.90   1.000   P
 JAGI       41.90   1.000   P
# 2013 02 12 21 32 50.1  -07.44    111.74     12.0  3.0   0.0   0.0   1.340       223
 NGJI        7.70   1.000   P
 SWJI        9.20   1.000   P
 PWJI       14.00   1.000   P
 GRJI       17.70   1.000   P
 PCJI       18.60   1.000   P
 TBJI       20.50   1.000   P
 PWJI       24.10   1.000   S
 SMRI       24.80   1.000   P
 SMRI       42.50   1.000   S
 JAGI       43.50   1.000   P
# 2013 02 13 16 04 19.3  -09.75    110.66    265.0  3.7   0.0   0.0   0.148       224
 PCJI       40.70   1.000   P
 PWJI       42.90   1.000   P
 SWJI       46.30   1.000   P
 NGJI       48.50   1.000   P
 SMRI       50.40   1.000   P
 CMJI       52.50   1.000   P
 KPJI       53.20   1.000   P
 CTJI       54.40   1.000   P
 GMJI       54.50   1.000   P
 TBJI       55.20   1.000   P
 GRJI       57.10   1.000   P
 JAGI       61.00   1.000   P
 PCJI       73.20   1.000   S
 PWJI       77.40   1.000   S
 WOJI       77.80   1.000   P
 SWJI       83.60   1.000   S
 NGJI       87.00   1.000   S
# 2013 02 14 19 10 33.3  -10.56    112.55     10.0  3.9   0.0   0.0   0.227       225
 GMJI       39.90   1.000   P
 JAGI       42.30   1.000   P
 PCJI       43.10   1.000   P
 SWJI       46.30   1.000   P
 GRJI       56.30   1.000   P
 KMMI       58.00   1.000   P
 KPJI       72.60   1.000   P
 CMJI       73.10   1.000   P
# 2013 02 22 00 13 03.4  -07.97    111.38    124.0  3.9   0.0   0.0   0.371       226
 PCJI       18.80   1.000   P
 PWJI       18.90   1.000   P
 SWJI       19.10   1.000   P
 WOJI       19.20   1.000   P
 NGJI       20.10   1.000   P
 TBJI       24.80   1.000   P
 SMRI       25.90   1.000   P
 GRJI       28.20   1.000   P
 PCJI       32.80   1.000   S
 WOJI       33.80   1.000   S
 CTJI       38.40   1.000   P
 KPJI       39.90   1.000   P
 KMMI       42.70   1.000   P
 JAGI       43.60   1.000   P
 CMJI       44.80   1.000   P
# 2013 02 23 06 46 38.5  -08.47    110.72     19.0  2.8   0.0   0.0   0.046       227
 PCJI       11.00   1.000   P
 WOJI       13.10   1.000   P
 PWJI       19.80   1.000   P
 SWJI       22.00   1.000   P
# 2013 02 23 09 17 34.3  -09.23    110.39     10.0  4.3   0.0   0.0   1.172       228
 PCJI       21.10   1.000   P
 PWJI       29.20   1.000   P
 SMRI       36.50   1.000   P
 NGJI       37.70   1.000   P
 CMJI       37.80   1.000   P
 KPJI       40.30   1.000   P
 CTJI       41.80   1.000   P
 JAGI       58.90   1.000   P
# 2013 02 23 16 24 55.7  -08.67    111.19     58.0  2.7   0.0   0.0   0.268       229
 PCJI       13.20   1.000   P
 PWJI       16.10   1.000   P
 SWJI       18.80   1.000   P
 PCJI       23.00   1.000   S
 PWJI       27.60   1.000   S
 SWJI       34.30   1.000   S
# 2013 02 23 23 07 16.7  -09.29    110.39     11.0  4.2   0.0   0.0   0.679       230
 PCJI       22.80   1.000   P
 WOJI       27.00   1.000   P
 PWJI       31.20   1.000   P
 SWJI       34.30   1.000   P
 SMRI       37.80   1.000   P
 CMJI       39.20   1.000   P
 KPJI       39.40   1.000   P
 CTJI       42.90   1.000   P
 WOJI       47.20   1.000   S
 PWJI       53.10   1.000   S
 JAGI       59.80   1.000   P
 NGJI       64.30   1.000   P
 SMRI       64.90   1.000   S
 KPJI       70.70   1.000   S
 CTJI       73.80   1.000   S
 JAGI      104.00   1.000   S
# 2013 03 05 09 05 30.2  -08.96    110.42     10.0  3.6   0.0   0.0   0.846       231
 WOJI       21.90   1.000   P
 NGJI       33.90   1.000   P
 JAGI       56.30   1.000   P
# 2013 03 05 12 37 32.4  -10.76    111.22     23.0  4.4   0.0   0.0   1.078       232
 WOJI       43.20   1.000   P
 GMJI       50.60   1.000   P
 NGJI       51.60   1.000   P
 JAGI       56.50   1.000   P
 CTJI       65.20   1.000   P
 GMJI       90.10   1.000   S
 JAGI       98.00   1.000   S
# 2013 03 10 04 23 31.3  -06.94    112.05     10.0  2.4   0.0   0.0   0.370       233
 TBJI        5.30   1.000   P
 GRJI        8.80   1.000   P
 TBJI       10.10   1.000   S
 NGJI       14.30   1.000   P
 GRJI       16.20   1.000   S
 PWJI       23.30   1.000   P
 PCJI       27.50   1.000   P
 PWJI       40.80   1.000   S
# 2013 03 11 12 48 01.2  -08.74    111.53     22.0  3.0   0.0   0.0   0.889       234
 PCJI       12.20   1.000   P
 PWJI       14.50   1.000   P
 SWJI       19.00   1.000   P
 WOJI       19.60   1.000   P
 PCJI       22.00   1.000   S
 SWJI       33.40   1.000   S
 WOJI       34.30   1.000   S
# 2013 03 12 06 32 22.8  -08.39    110.75     13.0  3.3   0.0   0.0   0.361       235
 PCJI       10.20   1.000   P
 WOJI       11.70   1.000   P
 PCJI       17.30   1.000   S
 PWJI       19.90   1.000   P
 WOJI       20.20   1.000   S
 SWJI       21.40   1.000   P
 PWJI       34.60   1.000   S
 KPJI       34.70   1.000   P
 SWJI       38.20   1.000   S
# 2013 03 13 03 11 00.9  -08.18    110.77     73.0  2.5   0.0   0.0   0.127       236
 WOJI       13.30   1.000   P
 PCJI       13.80   1.000   P
 PWJI       19.00   1.000   P
 WOJI       24.00   1.000   S
 PCJI       24.20   1.000   S
 PWJI       33.80   1.000   S
# 2013 03 13 11 37 28.1  -08.40    112.78     10.0  2.9   0.0   0.0   0.350       237
 PWJI       18.60   1.000   P
 BLJI       19.50   1.000   P
 JAGI       24.30   1.000   P
 GRJI       27.00   1.000   P
 PCJI       28.40   1.000   P
