# 2013 12 23 20 08 05.9  -08.04    110.39     10.0  3.7   0.0   0.0   1.192       342
 WOJI       10.60   1.000   P
 PCJI       14.90   1.000   P
 WOJI       18.60   1.000   S
 SMRI       19.50   1.000   P
 SWJI       24.50   1.000   P
 NGJI       25.00   1.000   P
 PCJI       25.50   1.000   S
 CTJI       28.90   1.000   P
 KPJI       29.10   1.000   P
 CMJI       32.00   1.000   P
 TBJI       32.40   1.000   P
 GRJI       39.60   1.000   P
 SWJI       45.50   1.000   S
 CTJI       50.60   1.000   S
 KPJI       51.30   1.000   S
 CNJI       51.70   1.000   P
 TBJI       57.10   1.000   S
 CMJI       58.70   1.000   S
 CNJI       92.40   1.000   S
# 2013 12 28 10 58 02.4  -07.82    111.92     10.0  2.7   0.0   0.0   0.471       343
 SWJI        4.80   1.000   P
 PWJI        5.70   1.000   P
 SWJI        7.50   1.000   S
 PWJI        9.90   1.000   S
 NGJI       13.30   1.000   P
 PCJI       15.60   1.000   P
 WOJI       18.60   1.000   P
 GRJI       19.90   1.000   P
 GMJI       27.10   1.000   P
 PCJI       27.10   1.000   S
 SMRI       29.30   1.000   P
 WOJI       32.60   1.000   S
 GRJI       34.60   1.000   S
 GMJI       49.20   1.000   S
 SMRI       51.20   1.000   S
# 2014 01 01 10 46 35.1  -08.47    112.40     87.0  3.2   0.0   0.0   0.551       344
 PWJI       17.20   1.000   P
 SWJI       19.70   1.000   P
 GMJI       20.10   1.000   P
 PCJI       23.30   1.000   P
 GRJI       26.00   1.000   P
 WOJI       26.90   1.000   P
 JAGI       28.30   1.000   P
 PWJI       30.60   1.000   S
 SWJI       34.70   1.000   S
 GMJI       35.90   1.000   S
 JAGI       49.90   1.000   S
# 2014 01 04 01 55 01.9  -11.89    110.78     10.0  4.8   0.0   0.0   0.841       345
 PCJI       55.50   1.000   P
 PWJI       59.70   1.000   P
 WOJI       60.60   1.000   P
 SWJI       64.00   1.000   P
 GMJI       67.10   1.000   P
 NGJI       70.40   1.000   P
 JAGI       71.90   1.000   P
 SMRI       73.80   1.000   P
 KPJI       74.00   1.000   P
 CTJI       76.60   1.000   P
 BYJI       77.30   1.000   P
 CGJI      105.90   1.000   P
# 2014 01 07 20 46 46.3  -09.15    110.58     10.0  3.6   0.0   0.0   0.890       346
 PCJI       19.60   1.000   P
 WOJI       24.00   1.000   P
 SWJI       31.50   1.000   P
 NGJI       34.60   1.000   P
 SMRI       35.30   1.000   P
 CMJI       41.30   1.000   P
 KPJI       41.60   1.000   P
 WOJI       42.50   1.000   S
 TBJI       42.60   1.000   P
 UWJI       45.80   1.000   P
 GRJI       46.00   1.000   P
 JAGI       54.90   1.000   P
 SWJI       55.90   1.000   S
 CNJI       59.00   1.000   P
 SMRI       61.90   1.000   S
 CMJI       73.20   1.000   S
 CNJI      103.90   1.000   S
# 2014 01 11 15 18 06.4  -08.91    112.31     12.0  2.9   0.0   0.0   0.275       347
 PWJI       19.10   1.000   P
 GMJI       23.50   1.000   P
 PCJI       24.20   1.000   P
 JAGI       31.30   1.000   P
 PWJI       33.20   1.000   S
 GMJI       40.90   1.000   S
 PCJI       41.90   1.000   S
# 2014 01 11 15 33 19.3  -09.42    112.87     14.0  3.2   0.0   0.0   0.263       348
 GMJI       23.10   1.000   P
 JAGI       26.90   1.000   P
 PWJI       30.00   1.000   P
 SWJI       33.00   1.000   P
 JAGI       48.30   1.000   S
 PWJI       52.40   1.000   S
# 2014 01 22 07 53 01.1  -08.75    111.76     19.0  3.1   0.0   0.0   0.131       349
 PWJI       14.30   1.000   P
 PCJI       15.50   1.000   P
 SWJI       18.70   1.000   P
 WOJI       22.10   1.000   P
 GMJI       29.10   1.000   P
 JAGI       37.80   1.000   P
# 2014 01 22 20 16 37.3  -08.46    111.80     91.0  2.9   0.0   0.0   0.313       350
 PWJI       15.40   1.000   P
 PCJI       17.30   1.000   P
 SWJI       17.40   1.000   P
 WOJI       20.40   1.000   P
 NGJI       21.90   1.000   P
 GMJI       28.00   1.000   P
 PWJI       28.10   1.000   S
 PCJI       31.30   1.000   S
 SMRI       31.50   1.000   P
 JAGI       37.10   1.000   P
 JAGI       65.00   1.000   S
# 2014 01 26 14 35 48.2  -08.87    111.27     30.0  3.3   0.0   0.0   0.515       351
 PCJI       13.30   1.000   P
 PWJI       18.50   1.000   P
 SWJI       22.10   1.000   P
 NGJI       24.40   1.000   P
 PCJI       24.40   1.000   S
 PWJI       30.90   1.000   S
 WOJI       33.60   1.000   P
 GMJI       34.60   1.000   P
 JAGI       43.70   1.000   P
 CMJI       45.90   1.000   P
# 2014 01 27 16 02 21.2  -08.82    112.49     43.0  3.3   0.0   0.0   0.435       352
 GMJI       18.40   1.000   P
 SWJI       21.90   1.000   P
 PCJI       23.30   1.000   P
 JAGI       27.00   1.000   P
 GRJI       30.40   1.000   P
 SWJI       38.00   1.000   S
 JAGI       46.90   1.000   S
# 2014 01 28 08 01 15.3  -09.02    110.48     51.0  3.3   0.0   0.0   0.646       353
 PCJI       18.60   1.000   P
 WOJI       21.10   1.000   P
 PWJI       26.60   1.000   P
 SMRI       31.50   1.000   P
 PCJI       32.60   1.000   S
 CMJI       35.10   1.000   P
 WOJI       36.20   1.000   S
 PWJI       46.40   1.000   S
# 2014 02 04 00 38 02.7  -08.94    111.45     16.0  3.8   0.0   0.0   0.906       354
 PCJI       15.50   1.000   P
 PWJI       18.50   1.000   P
 SWJI       22.40   1.000   P
 PCJI       25.70   1.000   S
 NGJI       29.10   1.000   P
 PWJI       31.50   1.000   S
 GMJI       34.30   1.000   P
 SMRI       35.70   1.000   P
 GRJI       37.20   1.000   P
 SWJI       39.90   1.000   S
 JAGI       42.70   1.000   P
 KPJI       48.20   1.000   P
 CMJI       48.30   1.000   P
 GMJI       59.10   1.000   S
 SMRI       62.50   1.000   S
 KPJI       81.80   1.000   S
# 2014 02 04 17 08 56.2  -08.98    111.18     21.0  3.7   0.0   0.0   0.697       355
 PCJI       15.80   1.000   P
 SWJI       24.50   1.000   P
 PCJI       25.90   1.000   S
 NGJI       31.50   1.000   P
 SMRI       34.40   1.000   P
 GRJI       38.90   1.000   P
 KPJI       41.70   1.000   P
 SWJI       41.90   1.000   S
 CMJI       45.60   1.000   P
 JAGI       46.50   1.000   P
# 2014 02 05 18 52 16.9  -09.36    111.71     24.0  3.2   0.0   0.0   0.472       356
 PCJI       21.90   1.000   P
 SWJI       27.60   1.000   P
 WOJI       28.30   1.000   P
 GMJI       32.80   1.000   P
 JAGI       39.50   1.000   P
 SWJI       48.00   1.000   S
 WOJI       49.10   1.000   S
 JAGI       71.40   1.000   S
# 2014 02 07 06 31 49.1  -08.30    111.70     10.0  2.9   0.0   0.0   0.666       357
 PWJI        6.50   1.000   P
 PCJI       11.30   1.000   P
 SWJI       11.30   1.000   P
 WOJI       17.60   1.000   P
 PCJI       18.10   1.000   S
 SWJI       19.60   1.000   S
 NGJI       20.10   1.000   P
 WOJI       29.40   1.000   S
 GMJI       29.60   1.000   P
 GMJI       52.70   1.000   S
# 2014 02 07 22 31 58.3  -08.68    110.26     10.0  3.7   0.0   0.0   0.548       358
 PCJI       19.70   1.000   P
 WOJI       19.90   1.000   P
 SWJI       30.80   1.000   P
 NGJI       31.50   1.000   P
 KPJI       32.80   1.000   P
 CMJI       33.20   1.000   P
 WOJI       34.10   1.000   S
 CNJI       53.20   1.000   P
 JAGI       59.10   1.000   P
# 2014 02 08 02 21 59.1  -08.27    110.21    112.0  3.5   0.0   0.0   0.345       359
 WOJI       20.10   1.000   P
 PCJI       21.30   1.000   P
 SMRI       23.70   1.000   P
 NGJI       27.90   1.000   P
 KPJI       28.60   1.000   P
 SWJI       28.60   1.000   P
 CMJI       30.60   1.000   P
 PCJI       37.80   1.000   S
 CNJI       48.50   1.000   P
# 2014 02 08 02 22 00.9  -08.47    110.09     34.0  3.6   0.0   0.0   1.347       360
 WOJI       18.20   1.000   P
 PCJI       19.50   1.000   P
 SMRI       21.90   1.000   P
 KPJI       26.10   1.000   P
 SWJI       26.70   1.000   P
 CMJI       28.50   1.000   P
 PCJI       36.00   1.000   S
 CNJI       46.30   1.000   P
 KPJI       46.40   1.000   S
 CMJI       52.20   1.000   S
# 2014 02 08 08 42 57.9  -08.93    111.30     10.0  3.4   0.0   0.0   0.339       361
 PCJI       14.90   1.000   P
 PWJI       19.50   1.000   P
 WOJI       21.10   1.000   P
 SWJI       23.30   1.000   P
 PWJI       33.30   1.000   S
 SWJI       41.20   1.000   S
# 2014 02 11 06 46 18.1  -08.87    112.45     34.0  4.4   0.0   0.0   0.520       362
 SWJI       22.10   1.000   P
 PCJI       24.10   1.000   P
 JAGI       27.40   1.000   P
 WOJI       29.20   1.000   P
 NGJI       30.00   1.000   P
 GRJI       30.80   1.000   P
 KMMI       35.60   1.000   P
 SWJI       38.90   1.000   S
 PCJI       41.50   1.000   S
 SMRI       41.50   1.000   P
 UWJI       43.10   1.000   P
 WOJI       50.90   1.000   S
 NGJI       51.00   1.000   S
 KPJI       57.10   1.000   P
 CMJI       60.10   1.000   P
 CNJI       78.20   1.000   P
# 2014 02 11 07 38 54.9  -08.78    110.40     13.0  3.4   0.0   0.0   0.941       363
 PCJI       17.80   1.000   P
 WOJI       21.90   1.000   P
 SWJI       29.20   1.000   P
 SMRI       29.50   1.000   P
 PCJI       30.00   1.000   S
 NGJI       30.30   1.000   P
 KPJI       33.80   1.000   P
 WOJI       35.60   1.000   S
 CMJI       35.60   1.000   P
 JAGI       58.20   1.000   P
# 2014 02 12 19 39 42.4  -09.48    111.67     24.0  3.6   0.0   0.0   0.473       364
 PCJI       23.10   1.000   P
 PWJI       24.70   1.000   P
 SWJI       29.00   1.000   P
 WOJI       29.60   1.000   P
 PCJI       40.70   1.000   S
 JAGI       41.30   1.000   P
 GRJI       42.20   1.000   P
 SMRI       42.70   1.000   P
 PWJI       43.50   1.000   S
 SWJI       51.50   1.000   S
 WOJI       51.90   1.000   S
 CTJI       53.10   1.000   P
 KPJI       53.10   1.000   P
 CMJI       53.80   1.000   P
# 2014 02 14 18 40 50.1  -08.01    110.41     10.0  3.6   0.0   0.0   0.803       365
 WOJI       10.60   1.000   P
 PCJI       14.90   1.000   P
 WOJI       18.00   1.000   S
 SMRI       19.20   1.000   P
 SWJI       24.10   1.000   P
 PCJI       26.20   1.000   S
 KPJI       28.50   1.000   P
 SMRI       32.00   1.000   S
 GRJI       38.10   1.000   P
  LEM       47.00   1.000   P
 CNJI       52.00   1.000   P
 JAGI       60.10   1.000   P
# 2014 02 16 23 01 19.7  -07.40    110.52     10.0  2.7   0.0   0.0   0.905       366
 SMRI        6.40   1.000   P
 SMRI       14.20   1.000   S
 PCJI       18.40   1.000   P
 CTJI       24.20   1.000   P
 SWJI       24.50   1.000   P
 KPJI       28.70   1.000   P
 PCJI       34.50   1.000   S
 CTJI       44.20   1.000   S
# 2014 02 18 04 41 21.4  -07.58    110.96    238.0  3.6   0.0   0.0   0.433       367
 SMRI       32.50   1.000   P
 PCJI       33.40   1.000   P
 SWJI       33.70   1.000   P
 GRJI       38.60   1.000   P
 KPJI       42.20   1.000   P
 JAGI       54.50   1.000   P
 PCJI       58.40   1.000   S
 CNJI       61.30   1.000   P
# 2014 02 18 13 42 25.3  -10.76    110.91     10.0  4.3   0.0   0.0   0.688       368
 PCJI       41.70   1.000   P
 SWJI       48.50   1.000   P
 JAGI       59.80   1.000   P
 KPJI       60.40   1.000   P
 PCJI       74.10   1.000   S
# 2014 02 18 17 10 09.3  -06.16    111.08     16.0  3.5   0.0   0.0   0.700       369
 UWJI        5.90   1.000   P
 UWJI       14.30   1.000   S
 SMRI       19.30   1.000   P
 GRJI       27.00   1.000   P
 SWJI       29.30   1.000   P
 PCJI       33.30   1.000   P
 SMRI       34.90   1.000   S
 KPJI       39.50   1.000   P
 KMMI       46.40   1.000   P
 GRJI       48.40   1.000   S
  LEM       54.50   1.000   P
 JAGI       58.10   1.000   P
# 2014 02 18 19 59 15.6  -07.75    110.78     17.0  3.0   0.0   0.0   0.318       370
 PCJI       12.00   1.000   P
 SMRI       15.40   1.000   P
 SWJI       18.80   1.000   P
 PCJI       20.90   1.000   S
 SMRI       26.00   1.000   S
 SWJI       32.70   1.000   S
# 2014 02 22 22 25 36.2  -09.12    111.41     21.0  4.2   0.0   0.0   0.604       371
 PCJI       17.70   1.000   P
 WOJI       23.50   1.000   P
 SWJI       24.60   1.000   P
 PCJI       30.50   1.000   S
 SMRI       37.00   1.000   P
 GRJI       38.90   1.000   P
 WOJI       40.80   1.000   S
 SWJI       43.20   1.000   S
 JAGI       43.20   1.000   P
 KPJI       47.10   1.000   P
 CTJI       47.20   1.000   P
 SMRI       65.30   1.000   S
 KPJI       83.50   1.000   S
 CTJI       83.90   1.000   S
# 2014 02 26 07 34 44.3  -08.47    111.12     50.0  3.4   0.0   0.0   0.748       372
 PCJI       12.10   1.000   P
 WOJI       13.40   1.000   P
 PWJI       15.10   1.000   P
 SWJI       17.80   1.000   P
 WOJI       24.70   1.000   S
 SMRI       25.00   1.000   P
 PWJI       27.70   1.000   S
 SWJI       31.40   1.000   S
 KPJI       39.00   1.000   P
 JAGI       44.70   1.000   P
# 2014 03 04 10 49 32.1  -07.42    112.09    190.0  2.4   0.0   0.0   0.342       373
 SWJI       26.10   1.000   P
 SNJI       26.50   1.000   P
 PWJI       27.00   1.000   P
 GRJI       27.70   1.000   P
 PCJI       30.90   1.000   P
 GMJI       33.80   1.000   P
 PWJI       49.10   1.000   S
 PCJI       54.00   1.000   S
# 2014 03 04 16 42 59.6  -08.84    112.50     38.0  3.1   0.0   0.0   0.471       374
 SWJI       22.10   1.000   P
 PCJI       23.80   1.000   P
 JAGI       26.80   1.000   P
 WOJI       29.50   1.000   P
 GRJI       30.70   1.000   P
 SWJI       39.10   1.000   S
 PCJI       41.90   1.000   S
 WOJI       51.70   1.000   S
 GRJI       53.50   1.000   S
# 2014 03 05 07 14 13.5  -08.65    110.81     18.0  2.8   0.0   0.0   0.259       375
 PCJI       12.10   1.000   P
 WOJI       16.50   1.000   P
 PWJI       21.10   1.000   P
 WOJI       27.90   1.000   S
 PWJI       36.80   1.000   S
# 2014 03 05 08 35 22.1  -08.77    110.47     10.0  2.8   0.0   0.0   0.117       376
 PCJI       17.60   1.000   P
 WOJI       19.70   1.000   P
 PWJI       26.70   1.000   P
 PCJI       30.20   1.000   S
 WOJI       33.90   1.000   S
 PWJI       47.30   1.000   S
# 2014 03 07 16 58 43.2  -09.60    110.56     10.0  3.3   0.0   0.0   1.035       377
 PCJI       26.10   1.000   P
 WOJI       31.50   1.000   P
 SNJI       34.90   1.000   P
 SWJI       38.20   1.000   P
 SMRI       42.20   1.000   P
 KPJI       45.10   1.000   P
# 2014 03 09 10 27 39.9  -08.94    111.81     16.0  3.1   0.0   0.0   0.511       378
 PWJI       17.80   1.000   P
 PCJI       18.60   1.000   P
 SNJI       21.70   1.000   P
 SWJI       22.20   1.000   P
 WOJI       25.50   1.000   P
 GMJI       29.40   1.000   P
 PWJI       30.00   1.000   S
 PCJI       31.00   1.000   S
 GRJI       34.50   1.000   P
 JAGI       37.30   1.000   P
 SWJI       38.80   1.000   S
 WOJI       43.30   1.000   S
# 2014 03 09 13 42 18.8  -09.08    112.99     71.0  5.3   0.0   0.0   1.214       379
 JAGI       20.70   1.000   P
 PWJI       26.00   1.000   P
 SNJI       28.50   1.000   P
 SWJI       29.10   1.000   P
 PCJI       32.00   1.000   P
 GRJI       34.90   1.000   P
 WOJI       37.50   1.000   P
 SMRI       49.20   1.000   P
 KPJI       65.00   1.000   P
  LEM       84.50   1.000   P
 CNJI       88.00   1.000   P
 CBJI       93.90   1.000   P
 SKJI       96.30   1.000   P
# 2014 03 12 02 43 05.4  -08.70    111.10     10.0  2.5   0.0   0.0   0.234       380
 PCJI       10.50   1.000   P
 PCJI       17.60   1.000   S
 SNJI       20.50   1.000   P
 SWJI       21.10   1.000   P
 SWJI       37.60   1.000   S
# 2014 03 13 19 17 24.4  -07.91    112.22    180.0  4.8   0.0   0.0   0.794       381
 SWJI       25.30   1.000   P
 GRJI       27.80   1.000   P
 PCJI       29.00   1.000   P
 WOJI       30.50   1.000   P
 GMJI       30.80   1.000   P
 UWJI       35.80   1.000   P
 SMRI       36.80   1.000   P
 JAGI       37.70   1.000   P
 SWJI       44.70   1.000   S
 GRJI       49.90   1.000   S
 PCJI       50.80   1.000   S
 KPJI       53.00   1.000   P
 WOJI       53.70   1.000   S
 UWJI       65.40   1.000   S
 SMRI       65.80   1.000   S
 CNJI       75.00   1.000   P
 CBJI       79.20   1.000   P
 DBJI       82.00   1.000   P
 SKJI       84.70   1.000   P
# 2014 03 16 07 09 00.8  -09.65    112.83     12.0  3.4   0.0   0.0   0.226       382
 JAGI       30.00   1.000   P
 SNJI       35.20   1.000   P
 SWJI       35.60   1.000   P
 WOJI       41.80   1.000   P
 JAGI       52.80   1.000   S
 SWJI       63.60   1.000   S
# 2014 03 16 10 38 14.8  -08.99    110.46     15.0  3.5   0.0   0.0   0.625       383
 WOJI       22.10   1.000   P
 SNJI       29.60   1.000   P
 SWJI       30.50   1.000   P
 SMRI       33.80   1.000   P
 WOJI       38.60   1.000   S
 SWJI       53.40   1.000   S
# 2014 03 16 14 53 55.2  -08.94    111.04     49.0  4.9   0.0   0.0   1.291       384
 WOJI       18.10   1.000   P
 SNJI       22.20   1.000   P
 SWJI       22.90   1.000   P
 SMRI       31.60   1.000   P
 WOJI       31.80   1.000   S
 SWJI       40.70   1.000   S
 JAGI       48.30   1.000   P
 KMMI       52.00   1.000   P
 SMRI       56.00   1.000   S
  LEM       58.80   1.000   P
 JAGI       82.10   1.000   S
# 2014 03 16 17 25 17.6  -08.86    110.97     10.0  2.8   0.0   0.0   0.350       385
 WOJI       19.30   1.000   P
 SNJI       23.60   1.000   P
 SWJI       24.30   1.000   P
 WOJI       33.20   1.000   S
# 2014 03 17 06 39 31.6  -10.93    111.74     23.0  4.6   0.0   0.0   0.611       386
 PCJI       42.70   1.000   P
 SNJI       48.00   1.000   P
 SWJI       48.30   1.000   P
 WOJI       48.70   1.000   P
 JAGI       51.90   1.000   P
 KPJI       68.30   1.000   P
 WOJI       86.60   1.000   S
# 2014 03 19 16 34 28.4  -09.12    110.60     49.0  4.6   0.0   0.0   0.453       387
 PCJI       18.60   1.000   P
 WOJI       22.10   1.000   P
 PWJI       26.10   1.000   P
 SNJI       28.40   1.000   P
 SWJI       28.70   1.000   P
 SMRI       32.10   1.000   P
 UWJI       40.30   1.000   P
 GRJI       43.60   1.000   P
 GMJI       44.50   1.000   P
 PWJI       45.40   1.000   S
 JAGI       52.90   1.000   P
  LEM       55.80   1.000   P
 CNJI       57.00   1.000   P
 SMRI       57.90   1.000   S
 SKJI       66.60   1.000   P
# 2014 03 21 12 11 50.1  -08.43    110.44     28.0  4.0   0.0   0.0   0.909       388
 PCJI       14.60   1.000   P
 WOJI       15.40   1.000   P
 PWJI       23.40   1.000   P
 SMRI       24.70   1.000   P
 SNJI       24.80   1.000   P
 SWJI       25.90   1.000   P
 UWJI       32.30   1.000   P
 GRJI       39.10   1.000   P
 GMJI       46.20   1.000   P
 JAGI       54.40   1.000   P
 CBJI       58.00   1.000   P
 DBJI       62.20   1.000   P
# 2014 03 22 11 24 19.7  -06.22    112.42    556.0  4.1   0.0   0.0   0.895       389
 PWJI       70.60   1.000   P
# 2014 03 22 15 07 12.4  -09.07    111.40     10.0  3.6   0.0   0.0   0.476       390
 PCJI       17.40   1.000   P
 PWJI       21.10   1.000   P
 WOJI       24.10   1.000   P
 SWJI       25.30   1.000   P
 PCJI       28.90   1.000   S
 GMJI       35.60   1.000   P
 PWJI       35.90   1.000   S
 SMRI       37.80   1.000   P
 GRJI       39.10   1.000   P
 WOJI       41.70   1.000   S
 SWJI       43.50   1.000   S
 JAGI       44.80   1.000   P
# 2014 03 24 11 06 15.8  -09.04    110.66     14.0  3.4   0.0   0.0   0.396       391
 PCJI       17.50   1.000   P
 WOJI       22.10   1.000   P
 PWJI       25.70   1.000   P
 SWJI       28.70   1.000   P
 WOJI       37.70   1.000   S
# 2014 03 27 16 16 59.6  -09.35    110.41     10.0  3.7   0.0   0.0   0.588       392
 PCJI       23.70   1.000   P
 WOJI       28.10   1.000   P
 PWJI       31.80   1.000   P
 SWJI       35.20   1.000   P
 SMRI       37.30   1.000   P
 PCJI       43.70   1.000   S
 GMJI       51.30   1.000   P
 PWJI       56.70   1.000   S
 JAGI       59.00   1.000   P
# 2014 03 27 16 28 15.4  -09.43    110.44     11.0  3.5   0.0   0.0   0.809       393
 PCJI       24.40   1.000   P
 WOJI       30.10   1.000   P
 PWJI       32.70   1.000   P
 SWJI       36.10   1.000   P
 SMRI       40.70   1.000   P
 WOJI       51.20   1.000   S
 PWJI       57.20   1.000   S
 SWJI       63.50   1.000   S
# 2014 03 28 11 50 37.8  -08.82    110.99     21.0  3.5   0.0   0.0   0.397       394
 PCJI       13.70   1.000   P
 WOJI       18.20   1.000   P
 PWJI       20.30   1.000   P
 PCJI       22.90   1.000   S
 SWJI       23.60   1.000   P
 WOJI       31.60   1.000   S
 PWJI       34.90   1.000   S
 GMJI       39.10   1.000   P
 SWJI       41.20   1.000   S
