# 2012 09 15 06 57 30.8  -08.99    110.32     10.0  3.8   0.0   0.0   0.856       139
 PCJI       20.20   1.000   P
 WOJI       23.40   1.000   P
 PWJI       29.00   1.000   P
 SWJI       32.20   1.000   P
 SMRI       33.20   1.000   P
 CMJI       35.00   1.000   P
 KPJI       36.50   1.000   P
 CTJI       39.40   1.000   P
 GMJI       50.40   1.000   P
 BLJI       55.00   1.000   P
 JAGI       59.60   1.000   P
# 2012 09 15 09 35 37.2  -09.17    110.29     10.0  4.1   0.0   0.0   0.587       140
 WOJI       24.80   1.000   P
 PWJI       30.50   1.000   P
 SWJI       33.60   1.000   P
 NGJI       35.70   1.000   P
 SMRI       36.10   1.000   P
 CMJI       36.60   1.000   P
 KPJI       37.60   1.000   P
 CTJI       40.40   1.000   P
 GMJI       50.90   1.000   P
 BLJI       55.50   1.000   P
 JAGI       59.40   1.000   P
# 2012 09 26 01 15 24.5  -08.62    112.44    113.0  3.6   0.0   0.0   0.293       141
 PWJI       19.80   1.000   P
 SWJI       22.60   1.000   P
 GMJI       22.60   1.000   P
 PCJI       25.00   1.000   P
 BLJI       26.80   1.000   P
 WOJI       29.40   1.000   P
 JAGI       29.60   1.000   P
 PWJI       35.30   1.000   S
 SWJI       40.40   1.000   S
 BLJI       46.30   1.000   S
# 2012 09 26 14 24 11.7  -07.93    112.87    119.0  2.5   0.0   0.0   0.254       142
 GMJI       20.30   1.000   P
 PWJI       22.70   1.000   P
 GRJI       23.00   1.000   P
 JAGI       26.40   1.000   P
# 2012 09 29 07 58 05.9  -09.51    112.98     10.0  3.6   0.0   0.0   0.476       143
 GMJI       22.80   1.000   P
 JAGI       27.30   1.000   P
 PWJI       30.90   1.000   P
 BLJI       32.00   1.000   P
 BYJI       32.50   1.000   P
 SWJI       35.30   1.000   P
 PCJI       36.20   1.000   P
 GMJI       41.60   1.000   S
 NGJI       42.30   1.000   P
 WOJI       42.40   1.000   P
 KMMI       43.20   1.000   P
 JAGI       47.90   1.000   S
 KPJI       69.50   1.000   P
# 2012 10 01 04 34 10.4  -09.77    112.89     16.0  3.6   0.0   0.0   0.480       144
 GMJI       26.20   1.000   P
 JAGI       30.10   1.000   P
 PWJI       32.10   1.000   P
 BYJI       35.00   1.000   P
 BLJI       35.10   1.000   P
 SWJI       37.40   1.000   P
 PCJI       37.70   1.000   P
 WOJI       42.80   1.000   P
 PWJI       55.60   1.000   S
 PWJI       62.50   1.000   S
# 2012 10 01 16 19 59.6  -08.63    110.58    106.0  2.8   0.0   0.0   0.570       145
 WOJI       19.10   1.000   P
 PCJI       19.60   1.000   P
 PWJI       24.30   1.000   P
 SWJI       25.60   1.000   P
 PCJI       34.20   1.000   S
 KPJI       34.90   1.000   P
 PWJI       43.30   1.000   S
 GMJI       43.80   1.000   P
 JAGI       52.20   1.000   P
 KPJI       60.40   1.000   S
 CMJI       64.50   1.000   P
# 2012 10 09 23 15 57.8  -08.99    112.07     66.0  3.6   0.0   0.0   0.866       146
 PWJI       16.50   1.000   P
 PCJI       19.50   1.000   P
 SWJI       20.40   1.000   P
 GMJI       25.00   1.000   P
 PWJI       30.30   1.000   S
 BLJI       31.10   1.000   P
 GRJI       32.40   1.000   P
 JAGI       32.70   1.000   P
 BLJI       55.50   1.000   S
 JAGI       57.70   1.000   S
# 2012 10 10 12 28 30.2  -09.07    111.12     17.0  3.1   0.0   0.0   0.880       147
 PCJI       15.50   1.000   P
 PWJI       19.60   1.000   P
 SWJI       24.40   1.000   P
 PCJI       27.10   1.000   S
 PWJI       34.90   1.000   S
# 2012 10 14 01 43 48.5  -09.09    112.85     32.0  3.7   0.0   0.0   0.552       148
 GMJI       17.30   1.000   P
 JAGI       23.20   1.000   P
 PWJI       23.60   1.000   P
 BLJI       25.20   1.000   P
 SWJI       27.70   1.000   P
 BYJI       29.00   1.000   P
 PCJI       29.20   1.000   P
 GMJI       30.60   1.000   S
 GRJI       34.80   1.000   P
 KMMI       35.90   1.000   P
 PWJI       41.00   1.000   S
 BLJI       44.40   1.000   S
# 2012 10 23 05 13 50.4  -07.35    111.33     10.0  2.7   0.0   0.0   0.165       149
 PCJI       16.30   1.000   P
 PWJI       18.90   1.000   P
 PCJI       28.40   1.000   S
 PWJI       32.60   1.000   S
# 2012 10 24 18 05 00.2  -08.65    112.44     90.0  2.9   0.0   0.0   1.104       150
 PWJI       18.60   1.000   P
 PCJI       22.20   1.000   P
 SWJI       22.40   1.000   P
 WOJI       28.80   1.000   P
 PWJI       33.60   1.000   S
 PCJI       40.80   1.000   S
# 2012 10 24 21 04 50.6  -09.03    110.64     10.0  3.0   0.0   0.0   0.696       151
 PCJI       17.60   1.000   P
 PWJI       26.10   1.000   P
 SWJI       30.00   1.000   P
 NGJI       31.90   1.000   P
 PCJI       32.70   1.000   S
 CTJI       40.20   1.000   P
 SWJI       53.00   1.000   S
# 2012 10 26 05 37 19.8  -08.51    111.14     28.0  2.9   0.0   0.0   0.221       152
 PCJI        8.80   1.000   P
 PWJI       14.50   1.000   P
 WOJI       14.70   1.000   P
 SWJI       18.00   1.000   P
 TBJI       29.40   1.000   P
 KPJI       38.60   1.000   P
 CMJI       42.40   1.000   P
# 2012 10 27 00 27 48.7  -08.06    112.11     10.0  2.7   0.0   0.0   0.598       153
 PWJI        7.80   1.000   P
 PWJI       13.80   1.000   S
 PCJI       16.90   1.000   P
 GRJI       21.60   1.000   P
 WOJI       22.80   1.000   P
 BLJI       27.00   1.000   P
 PCJI       30.30   1.000   S
 JAGI       34.50   1.000   P
 WOJI       38.40   1.000   S
# 2012 10 27 10 51 22.2  -09.13    111.22     10.0  4.6   0.0   0.0   0.953       154
 PCJI       17.30   1.000   P
 PWJI       21.00   1.000   P
 WOJI       23.50   1.000   P
 SWJI       25.50   1.000   P
 NGJI       30.90   1.000   P
 PCJI       30.90   1.000   S
 PWJI       35.20   1.000   S
 GMJI       37.00   1.000   P
 TBJI       39.10   1.000   P
 GRJI       41.20   1.000   P
 WOJI       42.40   1.000   S
 BLJI       43.40   1.000   P
 JAGI       45.40   1.000   P
 SWJI       46.20   1.000   S
 KPJI       46.90   1.000   P
 CTJI       47.20   1.000   P
 CMJI       47.70   1.000   P
 KMMI       52.20   1.000   P
# 2012 10 27 18 35 24.2  -08.50    112.90    123.0  4.0   0.0   0.0   0.493       155
 GMJI       19.60   1.000   P
 BLJI       22.70   1.000   P
 PWJI       24.00   1.000   P
 JAGI       25.80   1.000   P
 SWJI       26.30   1.000   P
 BYJI       28.30   1.000   P
 GRJI       28.70   1.000   P
 KMMI       30.50   1.000   P
 PCJI       30.90   1.000   P
 NGJI       31.60   1.000   P
 TBJI       33.00   1.000   P
 WOJI       34.70   1.000   P
 GMJI       34.70   1.000   S
 BLJI       40.60   1.000   S
 PWJI       42.80   1.000   S
 JAGI       43.40   1.000   S
 SWJI       46.90   1.000   S
 BYJI       49.00   1.000   S
 GRJI       52.20   1.000   S
 PCJI       53.80   1.000   S
 TBJI       59.10   1.000   S
 WOJI       61.50   1.000   S
# 2012 10 31 11 38 14.2  -09.16    110.62     12.0  3.5   0.0   0.0   0.581       156
 PCJI       18.70   1.000   P
 WOJI       23.10   1.000   P
 PWJI       26.50   1.000   P
 SWJI       29.70   1.000   P
 NGJI       32.70   1.000   P
 SMRI       35.70   1.000   P
 CMJI       40.80   1.000   P
 WOJI       42.20   1.000   S
 GMJI       46.50   1.000   P
 SWJI       53.90   1.000   S
# 2012 11 02 13 57 04.2  -08.81    112.13     80.0  2.9   0.0   0.0   0.315       157
 PWJI       16.80   1.000   P
 PCJI       20.00   1.000   P
 SWJI       20.70   1.000   P
 GMJI       23.70   1.000   P
 WOJI       25.90   1.000   P
 PWJI       29.10   1.000   S
 JAGI       32.40   1.000   P
# 2012 11 02 18 44 07.3  -08.87    111.65     59.0  2.8   0.0   0.0   0.647       158
 PCJI       15.00   1.000   P
 PWJI       16.10   1.000   P
 WOJI       21.60   1.000   P
 GMJI       29.60   1.000   P
 WOJI       37.80   1.000   S
 JAGI       38.70   1.000   P
 GMJI       52.40   1.000   S
# 2012 11 03 19 50 02.9  -09.37    110.37     10.0  3.4   0.0   0.0   0.711       159
 PCJI       23.80   1.000   P
 WOJI       26.90   1.000   P
 PWJI       31.80   1.000   P
 SCJI       34.40   1.000   P
 SWJI       35.20   1.000   P
 NGJI       38.50   1.000   P
 SMRI       38.80   1.000   P
 CMJI       39.70   1.000   P
 KPJI       41.00   1.000   P
 CTJI       43.80   1.000   P
 WOJI       50.00   1.000   S
 GMJI       50.80   1.000   P
 PWJI       55.20   1.000   S
 SCJI       61.40   1.000   S
 SWJI       62.90   1.000   S
 NGJI       66.30   1.000   S
# 2012 11 03 21 26 44.7  -08.66    112.72    115.0  3.9   0.0   0.0   0.678       160
 GMJI       19.40   1.000   P
 PWJI       21.70   1.000   P
 BLJI       23.70   1.000   P
 SWJI       24.30   1.000   P
 JAGI       25.70   1.000   P
 PCJI       27.80   1.000   P
 GRJI       29.20   1.000   P
 BYJI       29.30   1.000   P
 NGJI       31.60   1.000   P
 WOJI       32.10   1.000   P
 KMMI       32.60   1.000   P
 TBJI       33.10   1.000   P
 GMJI       34.80   1.000   S
 PWJI       39.20   1.000   S
 BLJI       42.60   1.000   S
 SWJI       42.70   1.000   S
 JAGI       46.10   1.000   S
 PCJI       49.20   1.000   S
 GRJI       53.20   1.000   S
 BYJI       53.30   1.000   S
 SCJI       54.30   1.000   P
 TBJI       58.90   1.000   S
# 2012 11 07 21 31 10.4  -09.39    112.93     40.0  3.7   0.0   0.0   1.481       161
 GMJI       19.90   1.000   P
 JAGI       24.20   1.000   P
 PWJI       27.00   1.000   P
 BLJI       30.10   1.000   P
 PCJI       31.10   1.000   P
 SWJI       31.70   1.000   P
 GMJI       34.60   1.000   S
 WOJI       37.20   1.000   P
 NGJI       40.20   1.000   P
 PWJI       48.80   1.000   S
 PCJI       56.60   1.000   S
 KPJI       65.60   1.000   P
# 2012 11 08 01 42 12.2  -08.32    112.06    127.0  2.8   0.0   0.0   0.432       162
 PWJI       18.90   1.000   P
 SWJI       20.60   1.000   P
 PCJI       22.30   1.000   P
 WOJI       25.50   1.000   P
 GMJI       26.50   1.000   P
 PWJI       33.10   1.000   S
 PCJI       39.10   1.000   S
 WOJI       44.60   1.000   S
 GMJI       47.00   1.000   S
# 2012 11 16 00 07 42.4  -08.81    110.95     10.0  3.4   0.0   0.0   0.662       163
 PCJI       12.70   1.000   P
 WOJI       19.00   1.000   P
 PWJI       19.10   1.000   P
 PCJI       21.90   1.000   S
 SWJI       22.00   1.000   P
 NGJI       27.00   1.000   P
 WOJI       31.20   1.000   S
 SMRI       31.30   1.000   P
 PWJI       33.80   1.000   S
 SWJI       42.10   1.000   S
# 2012 11 16 16 10 44.3  -08.22    111.59    105.0  3.2   0.0   0.0   0.477       164
 PWJI       16.20   1.000   P
 PCJI       17.50   1.000   P
 SWJI       17.70   1.000   P
 WOJI       18.80   1.000   P
 NGJI       19.30   1.000   P
 GRJI       28.20   1.000   P
 PWJI       28.70   1.000   S
 GMJI       30.60   1.000   P
 PCJI       30.60   1.000   S
 SWJI       31.60   1.000   S
 WOJI       33.60   1.000   S
 JAGI       39.70   1.000   P
 KPJI       43.90   1.000   P
# 2012 11 19 10 01 40.4  -09.06    112.91     10.0  3.7   0.0   0.0   1.445       165
 GMJI       18.70   1.000   P
 JAGI       24.50   1.000   P
 PWJI       26.40   1.000   P
 BLJI       27.30   1.000   P
 SWJI       30.00   1.000   P
 GMJI       31.30   1.000   S
 PCJI       32.20   1.000   P
 WOJI       37.60   1.000   P
 KMMI       37.80   1.000   P
 NGJI       39.40   1.000   P
 JAGI       40.50   1.000   S
 WOJI       64.50   1.000   S
# 2012 11 23 15 43 20.2  -10.64    112.57     10.0  4.1   0.0   0.0   0.812       166
 PWJI       41.40   1.000   P
 JAGI       41.70   1.000   P
 PCJI       45.40   1.000   P
 BLJI       47.80   1.000   P
 SWJI       47.90   1.000   P
 WOJI       50.20   1.000   P
 PWJI       73.40   1.000   S
 PCJI       77.60   1.000   S
 BLJI       86.30   1.000   S
 WOJI       89.20   1.000   S
# 2012 11 23 19 20 57.1  -08.61    111.19     35.0  2.3   0.0   0.0   0.114       167
 PCJI       10.60   1.000   P
 PWJI       14.40   1.000   P
 WOJI       15.40   1.000   P
 SWJI       18.50   1.000   P
 PCJI       18.90   1.000   S
 WOJI       27.20   1.000   S
 SWJI       32.20   1.000   S
# 2012 11 27 21 23 51.8  -09.00    112.70     10.0  3.7   0.0   0.0   1.756       168
 PWJI       22.20   1.000   P
 SWJI       26.20   1.000   P
 BYJI       34.20   1.000   P
# 2012 11 28 06 47 01.5  -09.10    110.97     10.0  3.3   0.0   0.0   0.994       169
 PCJI       16.40   1.000   P
 WOJI       22.80   1.000   P
 NGJI       32.80   1.000   P
 CMJI       44.90   1.000   P
# 2012 11 28 18 05 51.2  -08.93    111.12     19.0  3.0   0.0   0.0   0.913       170
 PCJI       14.70   1.000   P
 PWJI       19.50   1.000   P
 WOJI       20.50   1.000   P
 SWJI       23.30   1.000   P
 PCJI       24.00   1.000   S
 PWJI       32.60   1.000   S
 WOJI       34.40   1.000   S
 SWJI       40.70   1.000   S
 JAGI       46.00   1.000   P
# 2012 11 28 21 27 15.4  -07.89    111.44     26.0  1.9   0.0   0.0   1.564       171
 SWJI        9.30   1.000   P
 WOJI        9.70   1.000   P
 PWJI       10.40   1.000   P
 PCJI       11.20   1.000   P
 PWJI       17.40   1.000   S
 WOJI       17.90   1.000   S
 SWJI       18.30   1.000   S
 PCJI       19.40   1.000   S
# 2012 11 28 21 28 52.4  -08.01    111.55     46.0  1.6   0.0   0.0   0.614       172
 PWJI        9.60   1.000   P
 SWJI       10.80   1.000   P
 PCJI       11.60   1.000   P
 PWJI       19.20   1.000   S
 PCJI       20.10   1.000   S
# 2012 11 28 21 31 21.6  -07.83    111.47     25.0  2.5   0.0   0.0   1.063       173
 WOJI        9.30   1.000   P
 SWJI        9.80   1.000   P
 PWJI       10.60   1.000   P
 PCJI       11.40   1.000   P
 TBJI       18.90   1.000   P
 PWJI       19.10   1.000   S
 PCJI       19.70   1.000   S
 GRJI       23.90   1.000   P
# 2012 11 28 21 42 25.9  -07.76    111.47     12.0  2.1   0.0   0.0   0.850       174
 SWJI        7.80   1.000   P
 PWJI       11.10   1.000   P
 WOJI       11.10   1.000   P
 PCJI       12.00   1.000   P
 WOJI       18.60   1.000   S
 PWJI       19.00   1.000   S
 PCJI       20.00   1.000   S
# 2012 12 01 15 02 16.2  -09.04    110.46     16.0  4.1   0.0   0.0   0.796       175
 PCJI       20.50   1.000   P
 WOJI       22.80   1.000   P
 PWJI       28.50   1.000   P
 SWJI       30.60   1.000   P
 SMRI       33.90   1.000   P
 PCJI       34.20   1.000   S
 CMJI       37.20   1.000   P
 KPJI       37.50   1.000   P
 WOJI       38.70   1.000   S
 CTJI       39.50   1.000   P
 PWJI       48.30   1.000   S
 SWJI       54.90   1.000   S
 JAGI       56.10   1.000   P
 CGJI       77.80   1.000   P
# 2012 12 06 15 25 26.1  -08.95    112.36     98.0  3.7   0.0   0.0   0.844       176
 PWJI       20.90   1.000   P
 PCJI       23.50   1.000   P
 SWJI       24.80   1.000   P
 WOJI       29.90   1.000   P
 PWJI       35.90   1.000   S
 SWJI       43.50   1.000   S
 WOJI       52.60   1.000   S
 CTJI       55.40   1.000   P
 KPJI       56.60   1.000   P
 CMJI       58.60   1.000   P
# 2012 12 07 11 04 04.3  -08.84    110.95     17.0  3.6   0.0   0.0   0.643       177
 PCJI       13.40   1.000   P
 WOJI       18.40   1.000   P
 PWJI       20.30   1.000   P
 SWJI       23.60   1.000   P
 PCJI       23.70   1.000   S
 NGJI       26.80   1.000   P
 WOJI       32.40   1.000   S
 PWJI       35.50   1.000   S
 KPJI       39.60   1.000   P
 CTJI       40.70   1.000   P
 SWJI       42.30   1.000   S
 CTJI       70.80   1.000   S
 KPJI       71.60   1.000   S
# 2012 12 07 12 30 53.8  -08.82    110.64     72.0  3.3   0.0   0.0   0.307       178
 PCJI       16.70   1.000   P
 PWJI       23.00   1.000   P
 SWJI       25.70   1.000   P
 PCJI       30.10   1.000   S
 KPJI       35.10   1.000   P
 PWJI       40.20   1.000   S
 SWJI       45.50   1.000   S
# 2012 12 09 19 00 04.2  -08.75    110.34     21.0  2.8   0.0   0.0   0.598       179
 PCJI       17.90   1.000   P
 WOJI       19.00   1.000   P
 PWJI       26.90   1.000   P
 SMRI       29.50   1.000   P
 CMJI       33.70   1.000   P
 WOJI       33.70   1.000   S
# 2012 12 16 05 01 53.2  -09.35    112.86     10.0  3.0   0.0   0.0   0.409       180
 GMJI       22.50   1.000   P
 PWJI       26.90   1.000   P
 JAGI       27.00   1.000   P
 SWJI       33.20   1.000   P
 GMJI       38.60   1.000   S
 WOJI       39.50   1.000   P
 PWJI       48.50   1.000   S
 WOJI       70.10   1.000   S
# 2012 12 18 10 49 46.9  -09.10    111.32     21.0  5.0   0.0   0.0   1.318       181
 PCJI       15.80   1.000   P
 PWJI       19.80   1.000   P
 WOJI       21.90   1.000   P
 SWJI       23.50   1.000   P
 PCJI       29.20   1.000   S
 NGJI       30.90   1.000   P
 PWJI       33.90   1.000   S
 GMJI       34.70   1.000   P
 SMRI       36.70   1.000   P
 TBJI       37.30   1.000   P
 GRJI       38.80   1.000   P
 WOJI       40.80   1.000   S
 JAGI       43.60   1.000   P
 SWJI       44.00   1.000   S
 KPJI       45.60   1.000   P
 CTJI       46.30   1.000   P
 CMJI       46.30   1.000   P
 BYJI       50.20   1.000   P
 KMMI       50.50   1.000   P
 JCJI       58.50   1.000   P
 SMRI       62.60   1.000   S
 GMJI       63.50   1.000   S
  LEM       65.50   1.000   P
 GRJI       68.70   1.000   S
# 2012 12 18 18 50 53.8  -08.82    110.92     14.0  3.5   0.0   0.0   0.503       182
 PCJI       13.50   1.000   P
 WOJI       18.40   1.000   P
 PWJI       20.20   1.000   P
 PCJI       23.10   1.000   S
 SWJI       23.60   1.000   P
 NGJI       27.50   1.000   P
 WOJI       32.10   1.000   S
 PWJI       35.20   1.000   S
 KPJI       40.20   1.000   P
 GMJI       40.30   1.000   P
 CMJI       42.80   1.000   P
 JAGI       50.20   1.000   P
 KPJI       70.00   1.000   S
# 2012 12 19 01 31 57.5  -08.03    110.53     10.0  3.6   0.0   0.0   0.928       183
 WOJI        8.70   1.000   P
 PCJI       14.20   1.000   P
 WOJI       14.20   1.000   S
 SMRI       18.90   1.000   P
 SWJI       22.90   1.000   P
 PWJI       23.00   1.000   P
 NGJI       23.30   1.000   P
 PCJI       23.40   1.000   S
 SCJI       24.00   1.000   P
 CTJI       30.00   1.000   P
 KPJI       30.50   1.000   P
 SMRI       33.20   1.000   S
 CMJI       33.80   1.000   P
 GRJI       36.90   1.000   P
 NGJI       37.30   1.000   S
 PWJI       38.70   1.000   S
 SWJI       41.00   1.000   S
 GMJI       46.00   1.000   P
 KPJI       53.30   1.000   S
# 2012 12 21 17 53 50.8  -07.84    110.56     10.0  2.6   0.0   0.0   0.257       184
 WOJI        7.90   1.000   P
 PCJI       13.80   1.000   P
 SWJI       22.40   1.000   P
 PWJI       23.10   1.000   P
 KPJI       29.80   1.000   P
# 2012 12 22 01 36 29.7  -10.74    112.20     31.0  4.3   0.0   0.0   0.608       185
 PWJI       39.00   1.000   P
 PCJI       40.80   1.000   P
 GMJI       42.10   1.000   P
 JAGI       44.90   1.000   P
 SWJI       45.70   1.000   P
 WOJI       47.60   1.000   P
 NGJI       51.90   1.000   P
 CMJI       68.70   1.000   P
 KPJI       69.20   1.000   P
 GMJI       74.70   1.000   S
 PCJI       74.80   1.000   S
 JAGI       79.60   1.000   S
# 2012 12 24 04 26 32.9  -09.49    110.14     10.0  3.5   0.0   0.0   1.414       186
 PCJI       25.90   1.000   P
 WOJI       31.30   1.000   P
 PWJI       35.40   1.000   P
 SWJI       38.10   1.000   P
 CMJI       38.90   1.000   P
 KPJI       41.20   1.000   P
 NGJI       42.80   1.000   P
 PCJI       51.80   1.000   S
 WOJI       54.60   1.000   S
 PWJI       63.60   1.000   S
 SWJI       67.40   1.000   S
 CMJI       69.50   1.000   S
# 2012 12 24 04 38 35.9  -09.41    110.22     38.0  4.7   0.0   0.0   1.244       187
 PCJI       23.00   1.000   P
 WOJI       26.50   1.000   P
 PWJI       31.20   1.000   P
 SCJI       31.90   1.000   P
 SWJI       34.30   1.000   P
 CMJI       35.70   1.000   P
 SMRI       36.60   1.000   P
 NGJI       37.80   1.000   P
 KPJI       38.30   1.000   P
 CTJI       40.00   1.000   P
 PCJI       44.40   1.000   S
 TBJI       47.30   1.000   P
 WOJI       47.90   1.000   S
 JCJI       49.90   1.000   P
 GRJI       50.30   1.000   P
 GMJI       50.50   1.000   P
 SCJI       55.90   1.000   S
 PWJI       56.10   1.000   S
 JAGI       59.40   1.000   P
 SWJI       62.90   1.000   S
 CMJI       64.80   1.000   S
 SMRI       66.50   1.000   S
 CTJI       73.00   1.000   S
 CGJI       75.80   1.000   P
 TBJI       81.70   1.000   S
 JCJI       86.90   1.000   S
 GRJI       88.10   1.000   S
 GMJI       90.20   1.000   S
 JAGI      104.30   1.000   S
 CGJI      133.90   1.000   S
