# 2012 03 09 21 27 09.4  -09.24    112.94     68.0  4.7   0.0   0.0   1.348        51
 GMJI       18.40   1.000   P
 JAGI       23.20   1.000   P
 PWJI       26.50   1.000   P
 BLJI       26.80   1.000   P
 BYJI       28.60   1.000   P
 SWJI       30.00   1.000   P
 ABJI       31.30   1.000   P
 GMJI       32.00   1.000   S
 PCJI       32.00   1.000   P
 GRJI       37.00   1.000   P
 KMMI       37.50   1.000   P
 JAGI       39.70   1.000   S
 TBJI       41.10   1.000   P
 PWJI       46.00   1.000   S
 BLJI       47.30   1.000   S
 SMRI       50.00   1.000   P
 BYJI       50.50   1.000   S
 BWJI       51.00   1.000   P
 SWJI       54.90   1.000   S
 PCJI       55.60   1.000   S
 ABJI       56.20   1.000   S
 SCJI       59.60   1.000   P
 CTJI       64.00   1.000   P
 GRJI       64.60   1.000   S
 CMJI       67.40   1.000   P
 TBJI       71.10   1.000   S
 CGJI      110.00   1.000   P
# 2012 03 12 14 06 52.5  -07.96    111.68     10.0  2.1   0.0   0.0   0.356        52
 SWJI        5.80   1.000   P
 PWJI        7.10   1.000   P
 PWJI       11.30   1.000   S
 PCJI       11.80   1.000   P
 PCJI       19.30   1.000   S
# 2012 03 16 14 50 39.6  -09.12    112.48     60.0  3.6   0.0   0.0   0.475        53
 PWJI       20.70   1.000   P
 GMJI       21.60   1.000   P
 SWJI       24.60   1.000   P
 PCJI       25.30   1.000   P
 BLJI       28.60   1.000   P
 JAGI       28.80   1.000   P
 GMJI       38.30   1.000   S
 BLJI       50.10   1.000   S
 JAGI       50.10   1.000   S
# 2012 03 19 02 19 37.5  -08.03    110.43     10.0  4.2   0.0   0.0   0.948        54
 PCJI       14.40   1.000   P
 SMRI       18.90   1.000   P
 SCJI       22.40   1.000   P
 PWJI       24.00   1.000   P
 SWJI       24.30   1.000   P
 PCJI       24.80   1.000   S
 CTJI       28.50   1.000   P
 TBJI       31.70   1.000   P
 CMJI       32.00   1.000   P
 SMRI       32.80   1.000   S
 GRJI       37.60   1.000   P
 PWJI       41.20   1.000   S
 GMJI       48.00   1.000   P
  LEM       49.40   1.000   P
 CTJI       50.20   1.000   S
 BLJI       50.50   1.000   P
 TBJI       55.80   1.000   S
 ABJI       58.40   1.000   P
 JAGI       58.70   1.000   P
 GRJI       67.00   1.000   S
 GMJI       86.40   1.000   S
 JAGI      101.20   1.000   S
# 2012 03 21 06 02 41.1  -09.08    112.73     10.0  3.4   0.0   0.0   0.697        55
 GMJI       19.40   1.000   P
 PWJI       23.80   1.000   P
 JAGI       25.60   1.000   P
 SWJI       28.00   1.000   P
 BLJI       28.20   1.000   P
 PCJI       30.10   1.000   P
 ABJI       34.10   1.000   P
 GMJI       35.00   1.000   S
 PWJI       41.10   1.000   S
 JAGI       47.90   1.000   S
 BLJI       48.70   1.000   S
 SWJI       51.00   1.000   S
 PCJI       53.90   1.000   S
 ABJI       58.70   1.000   S
# 2012 03 22 14 59 45.4  -09.51    112.77     21.0  3.8   0.0   0.0   0.966        56
 JAGI       28.00   1.000   P
 PWJI       28.20   1.000   P
 BLJI       31.70   1.000   P
 PCJI       32.60   1.000   P
 SWJI       32.80   1.000   P
 BYJI       33.40   1.000   P
 ABJI       35.90   1.000   P
 GRJI       42.10   1.000   P
 KMMI       42.30   1.000   P
 PWJI       49.00   1.000   S
 JAGI       49.30   1.000   S
 BLJI       54.60   1.000   S
 PCJI       58.10   1.000   S
 ABJI       66.30   1.000   S
# 2012 03 22 18 49 06.1  -07.77    112.96     11.0  2.7   0.0   0.0   0.597        57
 BLJI       12.60   1.000   P
 GRJI       18.10   1.000   P
 PWJI       21.20   1.000   P
 BLJI       21.60   1.000   S
 KMMI       21.90   1.000   P
 SWJI       22.50   1.000   P
 ABJI       23.20   1.000   P
 JAGI       24.20   1.000   P
 GRJI       32.20   1.000   S
 SWJI       38.00   1.000   S
 KMMI       39.40   1.000   S
 JAGI       43.50   1.000   S
# 2012 03 24 17 21 55.4  -08.41    111.03     15.0  3.2   0.0   0.0   0.600        58
 PCJI        6.50   1.000   P
 PCJI       11.00   1.000   S
 PWJI       15.30   1.000   P
 SWJI       18.00   1.000   P
 PWJI       26.30   1.000   S
 SWJI       31.40   1.000   S
 GRJI       34.40   1.000   P
 KPJI       37.60   1.000   P
 GMJI       38.20   1.000   P
 JAGI       48.60   1.000   P
 GRJI       61.10   1.000   S
 JAGI       84.60   1.000   S
# 2012 03 26 20 41 46.4  -10.97    111.87     10.0  4.1   0.0   0.0   0.840        59
 PCJI       44.50   1.000   P
 PWJI       45.90   1.000   P
 GMJI       49.30   1.000   P
 SWJI       50.90   1.000   P
 JAGI       52.70   1.000   P
 BLJI       57.70   1.000   P
 ABJI       61.40   1.000   P
 GRJI       63.30   1.000   P
 CMJI       68.90   1.000   P
 PCJI       80.20   1.000   S
 GMJI       86.30   1.000   S
 SWJI       90.70   1.000   S
 JAGI       92.80   1.000   S
 BLJI      100.40   1.000   S
 GRJI      111.30   1.000   S
# 2012 03 27 19 25 39.2  -08.69    112.42     51.0  3.1   0.0   0.0   0.589        60
 PWJI       15.80   1.000   P
 GMJI       18.90   1.000   P
 SWJI       19.70   1.000   P
 PCJI       21.30   1.000   P
 BLJI       24.00   1.000   P
 JAGI       27.10   1.000   P
 GRJI       27.30   1.000   P
 TBJI       29.60   1.000   P
 ABJI       31.40   1.000   P
 SWJI       35.20   1.000   S
 JAGI       48.70   1.000   S
 ABJI       57.10   1.000   S
# 2012 03 28 20 27 20.6  -09.42    110.46     25.0  3.0   0.0   0.0   0.394        61
 PCJI       22.90   1.000   P
 PWJI       29.80   1.000   P
 SWJI       34.00   1.000   P
 SCJI       34.30   1.000   P
 KPJI       40.10   1.000   P
 PCJI       41.90   1.000   S
 PWJI       52.30   1.000   S
 SWJI       60.30   1.000   S
# 2012 03 29 15 57 06.5  -09.21    110.30     18.0  2.9   0.0   0.0   0.504        62
 PCJI       22.10   1.000   P
 PWJI       30.50   1.000   P
 SWJI       33.60   1.000   P
 PCJI       40.60   1.000   S
 PWJI       53.00   1.000   S
 SWJI       59.30   1.000   S
# 2012 03 31 03 06 12.5  -08.89    111.17     23.0  3.8   0.0   0.0   0.854        63
 PCJI       13.30   1.000   P
 PWJI       18.60   1.000   P
 SWJI       22.40   1.000   P
 PCJI       23.30   1.000   S
 PWJI       32.00   1.000   S
 TBJI       35.30   1.000   P
 GMJI       36.10   1.000   P
 SCJI       36.30   1.000   P
 GRJI       37.90   1.000   P
 SWJI       39.40   1.000   S
 BLJI       41.80   1.000   P
 KPJI       43.10   1.000   P
 CMJI       43.90   1.000   P
 JAGI       45.80   1.000   P
# 2012 03 31 03 46 40.5  -09.05    112.91     33.0  4.0   0.0   0.0   0.399        64
 GMJI       17.20   1.000   P
 JAGI       23.20   1.000   P
 PWJI       23.50   1.000   P
 BLJI       24.60   1.000   P
 SWJI       27.20   1.000   P
 GMJI       30.00   1.000   S
 PCJI       30.30   1.000   P
 GRJI       33.90   1.000   P
 JAGI       40.50   1.000   S
 PWJI       41.40   1.000   S
 BLJI       42.80   1.000   S
 CGJI      107.90   1.000   P
# 2012 04 02 12 48 22.4  -06.86    112.47     19.0  3.2   0.0   0.0   0.806        65
 GRJI        2.80   1.000   P
 TBJI       12.70   1.000   P
 BWJI       18.60   1.000   P
 SWJI       21.20   1.000   P
 TBJI       23.30   1.000   S
 KMMI       25.00   1.000   P
 BLJI       25.10   1.000   P
 PWJI       26.30   1.000   P
 PCJI       31.00   1.000   P
 BWJI       33.10   1.000   S
 SMRI       33.40   1.000   P
 JAGI       37.50   1.000   P
 KMMI       43.70   1.000   S
# 2012 04 07 20 32 28.3  -09.11    110.52     43.0  4.4   0.0   0.0   0.662        66
 PCJI       19.20   1.000   P
 WOJI       22.10   1.000   P
 SWJI       29.30   1.000   P
 SCJI       30.50   1.000   P
 PCJI       33.20   1.000   S
 KPJI       36.90   1.000   P
 WOJI       37.80   1.000   S
 CTJI       37.90   1.000   P
 TBJI       40.50   1.000   P
 GRJI       44.20   1.000   P
 GMJI       45.10   1.000   P
 BLJI       50.20   1.000   P
 SWJI       51.60   1.000   S
 SCJI       53.40   1.000   S
 JAGI       53.90   1.000   P
 KMMI       58.30   1.000   P
 KPJI       65.40   1.000   S
 SKJI       65.80   1.000   P
 CTJI       68.00   1.000   S
 CGJI       77.80   1.000   P
 JAGI       94.80   1.000   S
# 2012 04 11 20 51 20.5  -08.63    110.76     10.0  2.6   0.0   0.0   0.230        67
 PCJI       11.20   1.000   P
 PWJI       19.40   1.000   P
 SWJI       23.60   1.000   P
 PWJI       35.30   1.000   S
 SWJI       41.50   1.000   S
# 2012 04 12 12 41 36.3  -10.07    112.97    114.0  3.6   0.0   0.0   0.174        68
 GMJI       31.20   1.000   P
 JAGI       32.70   1.000   P
 PWJI       35.50   1.000   P
 BYJI       37.20   1.000   P
 BLJI       38.30   1.000   P
 PCJI       40.60   1.000   P
 SWJI       41.10   1.000   P
 GMJI       56.30   1.000   S
 KPJI       70.10   1.000   P
 PCJI       73.20   1.000   S
 WOJI       83.20   1.000   P
# 2012 04 13 14 47 22.9  -09.01    112.15     58.0  3.5   0.0   0.0   0.949        69
 PWJI       17.90   1.000   P
 PCJI       20.60   1.000   P
 SWJI       22.40   1.000   P
 GMJI       23.00   1.000   P
 WOJI       27.20   1.000   P
 BLJI       30.90   1.000   P
 PWJI       31.40   1.000   S
 JAGI       31.60   1.000   P
 GRJI       34.10   1.000   P
 PCJI       36.70   1.000   S
 WOJI       47.80   1.000   S
# 2012 04 14 17 11 44.5  -10.59    112.49     15.0  4.5   0.0   0.0   1.131        70
 GMJI       40.40   1.000   P
 PWJI       41.40   1.000   P
 PCJI       41.80   1.000   P
 JAGI       43.20   1.000   P
 SWJI       45.30   1.000   P
 WOJI       48.40   1.000   P
 BLJI       49.50   1.000   P
 GMJI       69.90   1.000   S
 KPJI       71.70   1.000   P
 PCJI       74.70   1.000   S
 JAGI       74.80   1.000   S
 BLJI       84.90   1.000   S
 WOJI       86.40   1.000   S
 CBJI       99.70   1.000   P
 GRJI      101.40   1.000   P
 CTJI      127.00   1.000   P
 KPJI      127.50   1.000   S
# 2012 04 15 00 48 26.7  -09.00    111.72     59.0  3.1   0.0   0.0   0.942        71
 PCJI       16.70   1.000   P
 PWJI       17.00   1.000   P
 SWJI       21.50   1.000   P
 WOJI       23.70   1.000   P
 PCJI       29.10   1.000   S
 PWJI       29.30   1.000   S
 GMJI       30.40   1.000   P
 JAGI       37.40   1.000   P
 SWJI       38.80   1.000   S
 WOJI       41.60   1.000   S
 GMJI       51.30   1.000   S
# 2012 04 17 15 08 37.6  -08.77    112.83    118.0  4.1   0.0   0.0   0.473        72
 GMJI       20.60   1.000   P
 PWJI       24.70   1.000   P
 JAGI       26.10   1.000   P
 SWJI       27.20   1.000   P
 PCJI       30.40   1.000   P
 GRJI       31.50   1.000   P
 KMMI       34.30   1.000   P
 WOJI       35.00   1.000   P
 TBJI       35.60   1.000   P
 GMJI       35.80   1.000   S
 SMRI       45.20   1.000   P
 SCJI       56.60   1.000   P
 KPJI       60.90   1.000   P
# 2012 04 18 20 02 27.1  -08.96    110.00     10.0  3.3   0.0   0.0   0.572        73
 WOJI       25.50   1.000   P
 SMRI       32.50   1.000   P
 PWJI       33.20   1.000   P
 SWJI       36.20   1.000   P
 WOJI       44.00   1.000   S
 PWJI       58.10   1.000   S
 SMRI       59.40   1.000   S
 SWJI       63.40   1.000   S
# 2012 04 18 20 23 58.8  -08.07    112.26    167.0  3.6   0.0   0.0   0.625        74
 PWJI       23.90   1.000   P
 SWJI       24.70   1.000   P
 PCJI       28.00   1.000   P
 GRJI       28.10   1.000   P
 GMJI       28.70   1.000   P
 TBJI       29.00   1.000   P
 WOJI       29.90   1.000   P
 JAGI       35.50   1.000   P
 KMMI       36.30   1.000   P
 SMRI       37.10   1.000   P
 PWJI       42.00   1.000   S
 SWJI       44.00   1.000   S
 SCJI       48.90   1.000   P
 PCJI       49.20   1.000   S
 GRJI       49.80   1.000   S
 CTJI       50.80   1.000   P
 TBJI       51.80   1.000   S
 KPJI       53.00   1.000   P
# 2012 04 22 22 55 14.7  -09.50    112.95     12.0  3.7   0.0   0.0   0.472        75
 GMJI       23.30   1.000   P
 JAGI       26.50   1.000   P
 PWJI       29.10   1.000   P
 BLJI       31.30   1.000   P
 BYJI       31.30   1.000   P
 SWJI       34.30   1.000   P
 PCJI       35.50   1.000   P
 WOJI       40.70   1.000   P
 NGJI       41.10   1.000   P
 GRJI       41.80   1.000   P
 BLJI       54.80   1.000   S
# 2012 04 26 16 57 08.1  -09.46    112.88     10.0  3.4   0.0   0.0   1.085        76
 GMJI       23.10   1.000   P
 JAGI       27.50   1.000   P
 PWJI       29.20   1.000   P
 BLJI       33.00   1.000   P
 PCJI       33.60   1.000   P
 SWJI       34.30   1.000   P
 NGJI       43.20   1.000   P
 GRJI       43.30   1.000   P
 JAGI       48.30   1.000   S
 PWJI       50.90   1.000   S
# 2012 04 27 04 02 37.3  -07.87    110.59     11.0  2.0   0.0   0.0   0.389        77
 WOJI        8.20   1.000   P
 WOJI       12.80   1.000   S
 PCJI       13.70   1.000   P
 PWJI       23.10   1.000   P
 PCJI       23.60   1.000   S
 PWJI       39.40   1.000   S
# 2012 05 01 06 36 43.7  -08.36    111.90    113.0  2.8   0.0   0.0   0.830        78
 PWJI       17.70   1.000   P
 SWJI       18.50   1.000   P
 PCJI       20.60   1.000   P
 WOJI       23.60   1.000   P
 PWJI       29.70   1.000   S
 SWJI       33.50   1.000   S
 PCJI       34.10   1.000   S
 JAGI       35.90   1.000   P
 WOJI       39.50   1.000   S
 JAGI       63.20   1.000   S
# 2012 05 07 05 07 36.4  -08.37    112.21     94.0  2.5   0.0   0.0   0.591        79
 PWJI       16.30   1.000   P
 SWJI       19.00   1.000   P
 PCJI       21.10   1.000   P
 PWJI       29.00   1.000   S
 PCJI       35.30   1.000   S
# 2012 05 07 09 39 18.8  -08.35    112.66     93.0  3.5   0.0   0.0   0.503        80
 GMJI       17.90   1.000   P
 PWJI       19.20   1.000   P
 SWJI       21.20   1.000   P
 BLJI       21.60   1.000   P
 GRJI       24.70   1.000   P
 PCJI       25.90   1.000   P
 JAGI       26.20   1.000   P
 NGJI       26.70   1.000   P
 ABJI       28.00   1.000   P
 BYJI       29.20   1.000   P
 WOJI       29.80   1.000   P
 CTJI       55.00   1.000   P
 KPJI       56.90   1.000   P
# 2012 05 08 06 22 32.9  -09.21    112.39     61.0  3.7   0.0   0.0   0.954        81
 PWJI       21.80   1.000   P
 GMJI       22.60   1.000   P
 PCJI       25.20   1.000   P
 SWJI       27.70   1.000   P
 JAGI       29.20   1.000   P
 BLJI       30.60   1.000   P
 WOJI       30.90   1.000   P
 PWJI       38.30   1.000   S
 GMJI       39.70   1.000   S
 PCJI       44.20   1.000   S
 SWJI       46.30   1.000   S
 BLJI       53.60   1.000   S
 WOJI       55.50   1.000   S
 CMJI       60.20   1.000   P
# 2012 05 08 09 05 55.5  -08.17    111.46     10.0  3.0   0.0   0.0   0.644        82
 PCJI        6.10   1.000   P
 PWJI        7.30   1.000   P
 PCJI       10.20   1.000   S
 SWJI       10.30   1.000   P
 PWJI       12.00   1.000   S
 WOJI       20.90   1.000   P
 GMJI       34.00   1.000   P
 GMJI       59.70   1.000   S
# 2012 05 08 16 23 43.4  -07.46    111.81    224.0  3.6   0.0   0.0   0.706        83
 SWJI       30.00   1.000   P
 TBJI       30.30   1.000   P
 PWJI       30.40   1.000   P
 NGJI       30.80   1.000   P
 GRJI       31.40   1.000   P
 WOJI       32.20   1.000   P
 PCJI       32.70   1.000   P
 SMRI       34.80   1.000   P
 BLJI       39.00   1.000   P
 GMJI       39.20   1.000   P
 JAGI       46.10   1.000   P
 BYJI       46.80   1.000   P
 SCJI       47.30   1.000   P
 KPJI       50.50   1.000   P
 SWJI       52.70   1.000   S
 NGJI       53.80   1.000   S
 CMJI       54.00   1.000   P
 PWJI       55.40   1.000   S
 TBJI       56.20   1.000   S
 GRJI       57.50   1.000   S
 PCJI       58.90   1.000   S
 JAGI       83.10   1.000   S
 CGJI       88.80   1.000   P
# 2012 05 15 05 31 04.9  -08.73    110.32     25.0  2.9   0.0   0.0   0.689        84
 PCJI       17.70   1.000   P
 WOJI       19.40   1.000   P
 SCJI       25.50   1.000   P
 PWJI       26.90   1.000   P
 PCJI       30.70   1.000   S
 WOJI       33.80   1.000   S
 PWJI       46.80   1.000   S
# 2012 05 18 21 41 56.9  -09.30    112.89     10.0  4.0   0.0   0.0   1.124        85
 GMJI       20.60   1.000   P
 JAGI       24.50   1.000   P
 PWJI       26.70   1.000   P
 BLJI       29.20   1.000   P
 SWJI       31.80   1.000   P
 BYJI       32.30   1.000   P
 PCJI       34.30   1.000   P
 GMJI       37.50   1.000   S
 WOJI       37.70   1.000   P
 NGJI       42.00   1.000   P
 JAGI       47.30   1.000   S
 PWJI       47.80   1.000   S
 BLJI       52.00   1.000   S
 BYJI       54.20   1.000   S
# 2012 05 22 11 24 28.2  -08.95    110.16     24.0  4.4   0.0   0.0   0.646        86
 PCJI       21.60   1.000   P
 WOJI       22.30   1.000   P
 SCJI       25.90   1.000   P
 PWJI       29.40   1.000   P
 SWJI       31.80   1.000   P
 SMRI       32.00   1.000   P
 CMJI       32.20   1.000   P
 KPJI       33.00   1.000   P
 NGJI       34.00   1.000   P
 CTJI       35.20   1.000   P
 UWJI       41.60   1.000   P
 TBJI       42.50   1.000   P
 JCJI       44.60   1.000   P
 GRJI       47.30   1.000   P
  LEM       50.40   1.000   P
 GMJI       50.60   1.000   P
 BLJI       54.20   1.000   P
 KPJI       58.10   1.000   S
 CBJI       59.20   1.000   P
 BWJI       59.30   1.000   P
 JAGI       59.70   1.000   P
 SKJI       61.10   1.000   P
 DBJI       61.70   1.000   P
 BYJI       63.30   1.000   P
 CGJI       72.50   1.000   P
# 2012 05 22 15 13 06.3  -08.86    110.14     10.0  4.0   0.0   0.0   0.709        87
 PCJI       21.40   1.000   P
 WOJI       23.20   1.000   P
 SCJI       26.70   1.000   P
 PWJI       30.70   1.000   P
 SMRI       32.70   1.000   P
 CMJI       32.80   1.000   P
 SWJI       33.30   1.000   P
 KPJI       33.90   1.000   P
 NGJI       34.90   1.000   P
 CTJI       36.40   1.000   P
 WOJI       40.60   1.000   S
 SCJI       45.90   1.000   S
 GRJI       47.90   1.000   P
 PWJI       53.30   1.000   S
 SMRI       55.30   1.000   S
 KPJI       58.00   1.000   S
 SWJI       58.50   1.000   S
 CBJI       58.70   1.000   P
 JAGI       60.60   1.000   P
 CTJI       61.20   1.000   S
# 2012 05 29 22 30 33.2  -09.57    112.94     10.0  3.3   0.0   0.0   0.699        88
 GMJI       24.40   1.000   P
 JAGI       27.50   1.000   P
 PWJI       31.20   1.000   P
 BLJI       33.30   1.000   P
 PCJI       37.00   1.000   P
# 2012 06 02 01 48 03.5  -09.47    112.97     24.0  3.5   0.0   0.0   1.098        89
 GMJI       21.10   1.000   P
 JAGI       26.20   1.000   P
 BYJI       28.10   1.000   P
 PWJI       28.20   1.000   P
 BLJI       30.20   1.000   P
 PCJI       33.10   1.000   P
 SWJI       34.50   1.000   P
 GMJI       36.90   1.000   S
 NGJI       38.90   1.000   P
 JAGI       46.70   1.000   S
 PWJI       51.10   1.000   S
 BLJI       52.80   1.000   S
 BYJI       54.20   1.000   S
 SWJI       60.30   1.000   S
 NGJI       72.00   1.000   S
# 2012 06 03 14 25 00.9  -09.98    112.86     10.0  3.2   0.0   0.0   1.005        90
 GMJI       31.80   1.000   P
 JAGI       32.30   1.000   P
 BLJI       37.40   1.000   P
# 2012 06 03 16 43 41.2  -09.13    112.66     49.0  2.8   0.0   0.0   0.476        91
 GMJI       19.90   1.000   P
 JAGI       26.20   1.000   P
 SWJI       26.30   1.000   P
 BLJI       26.50   1.000   P
 GMJI       34.50   1.000   S
 JAGI       45.40   1.000   S
 SWJI       46.70   1.000   S
 BLJI       48.10   1.000   S
# 2012 06 06 14 54 22.5  -09.06    111.22     13.0  3.1   0.0   0.0   0.219        92
 PCJI       16.80   1.000   P
 PWJI       19.30   1.000   P
 SWJI       25.10   1.000   P
 PCJI       29.00   1.000   S
 NGJI       29.50   1.000   P
 GMJI       38.50   1.000   P
# 2012 06 07 23 17 19.7  -08.53    112.72    138.0  3.6   0.0   0.0   0.467        93
 GMJI       23.20   1.000   P
 PWJI       23.20   1.000   P
 SWJI       25.90   1.000   P
 BLJI       26.20   1.000   P
 JAGI       27.60   1.000   P
 GRJI       29.90   1.000   P
 NGJI       30.90   1.000   P
 GMJI       39.00   1.000   S
 PWJI       42.00   1.000   S
# 2012 06 09 04 56 09.8  -08.70    111.38     83.0  4.1   0.0   0.0   0.696        94
 PCJI       16.00   1.000   P
 PWJI       17.40   1.000   P
 SWJI       19.70   1.000   P
 NGJI       23.90   1.000   P
 PCJI       27.20   1.000   S
 PWJI       28.20   1.000   S
 TBJI       29.90   1.000   P
 GRJI       32.00   1.000   P
 GMJI       33.70   1.000   P
 SWJI       35.30   1.000   S
 SCJI       37.10   1.000   P
 BLJI       37.10   1.000   P
 JAGI       42.40   1.000   P
 KPJI       42.60   1.000   P
 CMJI       45.20   1.000   P
