# 2013 03 15 01 23 14.7  -08.13    111.57     10.0  2.7   0.0   0.0   0.473       238
 PWJI        6.20   1.000   P
 PCJI        9.20   1.000   P
 PWJI       10.10   1.000   S
 SWJI       10.10   1.000   P
 PCJI       14.20   1.000   S
 SWJI       15.70   1.000   S
# 2013 03 16 01 59 41.6  -09.26    111.49     14.0  3.5   0.0   0.0   0.485       239
 PCJI       20.40   1.000   P
 PWJI       20.80   1.000   P
 SWJI       25.50   1.000   P
 WOJI       26.70   1.000   P
 NGJI       32.20   1.000   P
 SMRI       39.10   1.000   P
 GRJI       41.00   1.000   P
 BLJI       41.30   1.000   P
 JAGI       43.50   1.000   P
# 2013 03 17 12 54 18.7  -08.15    111.57     10.0  3.1   0.0   0.0   0.522       240
 PWJI        6.20   1.000   P
 PCJI        8.90   1.000   P
 PWJI        9.50   1.000   S
 SWJI        9.80   1.000   P
 WOJI       14.00   1.000   P
 PCJI       14.30   1.000   S
 NGJI       15.20   1.000   P
 SWJI       16.10   1.000   S
 WOJI       23.60   1.000   S
 GRJI       27.50   1.000   P
 JAGI       42.20   1.000   P
 GRJI       48.10   1.000   S
# 2013 03 18 12 52 18.3  -09.14    111.82     18.0  3.0   0.0   0.0   0.363       241
 PWJI       18.20   1.000   P
 PCJI       20.90   1.000   P
 SWJI       24.30   1.000   P
 WOJI       26.80   1.000   P
 NGJI       30.10   1.000   P
 PCJI       35.70   1.000   S
 SWJI       42.80   1.000   S
 WOJI       48.00   1.000   S
# 2013 03 27 04 35 29.8  -11.37    112.16     10.0  4.1   0.0   0.0   0.540       242
 PWJI       50.20   1.000   P
 GMJI       51.00   1.000   P
 JAGI       53.50   1.000   P
 SWJI       54.90   1.000   P
 BLJI       59.30   1.000   P
# 2013 03 28 15 21 26.9  -10.35    111.67     39.0  4.1   0.0   0.0   0.189       243
 PWJI       32.90   1.000   P
 PCJI       33.50   1.000   P
 WOJI       39.70   1.000   P
 SWJI       39.80   1.000   P
 GMJI       41.10   1.000   P
 NGJI       44.70   1.000   P
 JAGI       46.20   1.000   P
 GRJI       52.00   1.000   P
 SMRI       52.10   1.000   P
 KMMI       58.40   1.000   P
 CMJI       59.60   1.000   P
 CTJI       60.50   1.000   P
 PCJI       60.80   1.000   S
 SWJI       70.30   1.000   S
# 2013 03 29 02 30 47.1  -09.09    110.65     10.0  3.5   0.0   0.0   0.853       244
 PCJI       18.90   1.000   P
 WOJI       22.80   1.000   P
 PWJI       27.00   1.000   P
 SWJI       30.50   1.000   P
 CMJI       40.40   1.000   P
 KPJI       40.80   1.000   P
 CTJI       42.50   1.000   P
# 2013 03 30 11 38 50.2  -06.52    112.23     21.0  3.3   0.0   0.0   0.406       245
 GRJI       10.70   1.000   P
 TBJI       11.20   1.000   P
 GRJI       17.60   1.000   S
 TBJI       18.10   1.000   S
 NGJI       20.20   1.000   P
 SWJI       21.80   1.000   P
 SMRI       29.90   1.000   P
 PCJI       31.60   1.000   P
 NGJI       35.80   1.000   S
 SWJI       39.80   1.000   S
# 2013 03 31 11 04 46.8  -09.21    112.85     21.0  4.2   0.0   0.0   0.788       246
 GMJI       19.30   1.000   P
 JAGI       24.60   1.000   P
 PWJI       25.90   1.000   P
 BLJI       27.80   1.000   P
 SWJI       30.10   1.000   P
 BYJI       30.30   1.000   P
 PCJI       30.70   1.000   P
 GMJI       34.20   1.000   S
 WOJI       36.90   1.000   P
 GRJI       37.50   1.000   P
 KMMI       38.80   1.000   P
 TBJI       40.90   1.000   P
 JAGI       42.80   1.000   S
 PWJI       43.70   1.000   S
 BLJI       49.40   1.000   S
 PCJI       54.40   1.000   S
 WOJI       66.00   1.000   S
# 2013 04 02 22 17 57.1  -07.47    112.67     10.0  4.0   0.0   0.0   1.989       247
 BLJI       19.10   1.000   P
 SWJI       20.30   1.000   P
 PWJI       20.40   1.000   P
 JAGI       27.70   1.000   P
# 2013 04 06 08 43 14.7  -09.03    110.06     14.0  3.6   0.0   0.0   0.862       248
 PCJI       23.70   1.000   P
 WOJI       25.40   1.000   P
 PWJI       32.60   1.000   P
 KPJI       32.90   1.000   P
 SWJI       34.80   1.000   P
 CTJI       35.90   1.000   P
 PCJI       41.80   1.000   S
 WOJI       45.30   1.000   S
 GMJI       53.50   1.000   P
 PWJI       57.50   1.000   S
 SMRI       59.20   1.000   P
 JAGI       60.70   1.000   P
# 2013 04 10 05 12 06.1  -09.18    112.57     76.0  4.0   0.0   0.0   0.745       249
 GMJI       21.70   1.000   P
 PWJI       22.90   1.000   P
 SWJI       26.60   1.000   P
 PCJI       27.20   1.000   P
 JAGI       28.00   1.000   P
 BYJI       32.60   1.000   P
 WOJI       32.60   1.000   P
 GRJI       35.50   1.000   P
 GMJI       38.30   1.000   S
 PWJI       39.50   1.000   S
 KMMI       39.80   1.000   P
 SMRI       44.50   1.000   P
 SWJI       47.30   1.000   S
 JAGI       48.80   1.000   S
 WOJI       57.70   1.000   S
 BYJI       58.10   1.000   S
 KPJI       60.00   1.000   P
# 2013 04 15 08 49 16.7  -09.64    110.53     25.0  3.6   0.0   0.0   0.235       250
 WOJI       30.30   1.000   P
 PWJI       30.70   1.000   P
 SWJI       35.70   1.000   P
 NGJI       38.40   1.000   P
 SMRI       39.90   1.000   P
# 2013 04 16 03 48 21.6  -08.99    111.17     10.0  2.9   0.0   0.0   0.678       251
 PCJI       15.00   1.000   P
 PWJI       19.80   1.000   P
 WOJI       20.90   1.000   P
 SWJI       23.80   1.000   P
 PCJI       26.40   1.000   S
 NGJI       29.20   1.000   P
 PWJI       33.40   1.000   S
 WOJI       37.50   1.000   S
 SWJI       42.90   1.000   S
# 2013 04 22 10 48 45.5  -08.41    112.42     96.0  4.1   0.0   0.0   0.262       252
 PWJI       17.10   1.000   P
 SWJI       19.40   1.000   P
 GRJI       25.50   1.000   P
 WOJI       27.20   1.000   P
 TBJI       27.90   1.000   P
 JAGI       28.50   1.000   P
 SWJI       34.40   1.000   S
 SMRI       37.00   1.000   P
 WOJI       47.90   1.000   S
 SCJI       49.20   1.000   P
 JAGI       50.70   1.000   S
 CTJI       51.80   1.000   P
 KPJI       53.70   1.000   P
# 2013 04 22 16 23 53.7  -08.98    111.35     67.0  4.0   0.0   0.0   0.937       253
 PWJI       18.30   1.000   P
 WOJI       20.60   1.000   P
 SWJI       22.00   1.000   P
 PWJI       31.90   1.000   S
 SMRI       34.60   1.000   P
 TBJI       35.60   1.000   P
 WOJI       36.40   1.000   S
 GRJI       36.70   1.000   P
 SWJI       38.80   1.000   S
 JAGI       42.80   1.000   P
 CTJI       45.00   1.000   P
 GRJI       65.10   1.000   S
 JAGI       74.60   1.000   S
# 2013 04 23 22 58 17.7  -08.82    111.55     57.0  3.3   0.0   0.0   0.518       254
 PWJI       14.90   1.000   P
 WOJI       19.20   1.000   P
 SWJI       19.90   1.000   P
 PWJI       25.60   1.000   S
# 2013 04 24 02 39 14.2  -08.81    111.32     86.0  3.4   0.0   0.0   0.268       255
 PWJI       18.00   1.000   P
 WOJI       19.70   1.000   P
 SWJI       21.80   1.000   P
 PWJI       31.40   1.000   S
 WOJI       35.10   1.000   S
 SWJI       38.20   1.000   S
# 2013 04 24 17 09 22.9  -08.44    111.30     30.0  3.1   0.0   0.0   0.450       256
 PWJI       11.70   1.000   P
 WOJI       13.40   1.000   P
 SWJI       15.50   1.000   P
 PWJI       21.70   1.000   S
 WOJI       24.70   1.000   S
 SWJI       27.80   1.000   S
# 2013 04 24 23 26 38.6  -09.44    112.94     10.0  4.5   0.0   0.0   0.591       257
 JAGI       26.70   1.000   P
 PWJI       30.00   1.000   P
 SWJI       33.80   1.000   P
 WOJI       41.10   1.000   P
 GRJI       42.30   1.000   P
 CGJI      112.30   1.000   P
# 2013 05 03 21 59 06.4  -09.31    112.96     31.0  3.2   0.0   0.0   0.194       258
 GMJI       19.70   1.000   P
 JAGI       24.30   1.000   P
 PWJI       25.60   1.000   P
 SWJI       31.20   1.000   P
 PCJI       32.60   1.000   P
 GMJI       34.80   1.000   S
 NGJI       37.30   1.000   P
 KMMI       37.60   1.000   P
 GRJI       38.00   1.000   P
 WOJI       38.50   1.000   P
 WOJI       68.40   1.000   S
# 2013 05 04 01 13 32.2  -08.00    110.48     10.0  2.7   0.0   0.0   0.368       259
 WOJI        9.80   1.000   P
 PCJI       13.90   1.000   P
 WOJI       17.10   1.000   S
 SMRI       19.00   1.000   P
 PWJI       24.40   1.000   P
# 2013 05 04 08 04 46.3  -06.15    112.75    594.0  4.7   0.0   0.0   1.364       260
 GRJI       71.30   1.000   P
 TBJI       71.70   1.000   P
 KMMI       73.70   1.000   P
 SWJI       73.70   1.000   P
 PWJI       74.10   1.000   P
 SMRI       75.70   1.000   P
 WOJI       75.90   1.000   P
 JAGI       76.10   1.000   P
 PCJI       76.20   1.000   P
 CTJI       83.40   1.000   P
 KPJI       85.20   1.000   P
 JCJI       89.20   1.000   P
  LEM       94.20   1.000   P
 CBJI       98.70   1.000   P
 SKJI      101.40   1.000   P
 CGJI      108.30   1.000   P
# 2013 05 05 13 46 06.2  -08.58    112.95    136.0  3.9   0.0   0.0   0.612       261
 GMJI       20.80   1.000   P
 JAGI       25.80   1.000   P
 PWJI       26.00   1.000   P
 SWJI       28.10   1.000   P
 BYJI       28.50   1.000   P
 GRJI       30.20   1.000   P
 KMMI       31.90   1.000   P
 PCJI       32.50   1.000   P
 NGJI       33.90   1.000   P
 GMJI       35.90   1.000   S
 WOJI       36.40   1.000   P
 PWJI       45.20   1.000   S
 JAGI       45.60   1.000   S
 SWJI       49.50   1.000   S
 PCJI       56.40   1.000   S
 CGJI      105.00   1.000   P
# 2013 05 07 09 48 37.1  -08.39    111.29    121.0  4.4   0.0   0.0   0.421       262
 PCJI       18.60   1.000   P
 WOJI       19.90   1.000   P
 SWJI       20.70   1.000   P
 NGJI       22.80   1.000   P
 SMRI       28.70   1.000   P
 WOJI       35.30   1.000   S
 GMJI       35.70   1.000   P
 CTJI       39.90   1.000   P
 JAGI       43.90   1.000   P
 KMMI       45.50   1.000   P
 SMRI       50.50   1.000   S
 GMJI       62.90   1.000   S
 CGJI       84.20   1.000   P
# 2013 05 14 19 09 28.9  -10.41    112.29     86.0  4.3   0.0   0.0   0.920       263
 PWJI       36.10   1.000   P
 PCJI       36.60   1.000   P
 SWJI       40.70   1.000   P
 JAGI       41.20   1.000   P
 PWJI       62.80   1.000   S
 CTJI       67.20   1.000   P
 JAGI       72.00   1.000   S
 SWJI       75.00   1.000   S
# 2013 05 14 22 23 54.6  -09.24    111.20     23.0  3.8   0.0   0.0   0.664       264
 PCJI       17.90   1.000   P
 PWJI       22.10   1.000   P
 SWJI       26.30   1.000   P
 PWJI       37.20   1.000   S
 JAGI       46.00   1.000   P
# 2013 05 16 19 13 10.3  -07.07    110.01     13.0  2.7   0.0   0.0   0.875       265
 CTJI       15.60   1.000   P
 WOJI       22.00   1.000   P
 PCJI       28.30   1.000   P
 SWJI       30.70   1.000   P
 PWJI       34.30   1.000   P
 PWJI       60.20   1.000   S
# 2013 05 18 11 08 18.5  -09.62    112.33     10.0  4.3   0.0   0.0   1.133       266
 PWJI       27.90   1.000   P
 GMJI       28.50   1.000   P
 PCJI       30.40   1.000   P
 SWJI       32.30   1.000   P
 JAGI       34.90   1.000   P
 WOJI       36.60   1.000   P
 NGJI       41.40   1.000   P
 GRJI       43.60   1.000   P
 PWJI       47.10   1.000   S
 KMMI       47.60   1.000   P
# 2013 05 18 12 57 57.8  -08.60    111.46    106.0  3.2   0.0   0.0   0.538       267
 PWJI       17.80   1.000   P
 PCJI       17.90   1.000   P
 SWJI       20.10   1.000   P
 WOJI       20.70   1.000   P
 NGJI       24.40   1.000   P
 PCJI       30.70   1.000   S
 SMRI       30.80   1.000   P
 GRJI       31.10   1.000   P
 PWJI       31.40   1.000   S
 GMJI       32.70   1.000   P
 SWJI       35.60   1.000   S
 JAGI       40.90   1.000   P
# 2013 05 18 15 00 58.8  -06.76    110.70     11.0  3.0   0.0   0.0   0.691       268
 SMRI        6.70   1.000   P
 SMRI       14.60   1.000   S
 NGJI       18.80   1.000   P
 SWJI       24.50   1.000   P
 PCJI       25.10   1.000   P
 CTJI       26.40   1.000   P
 GRJI       29.60   1.000   P
 SWJI       44.50   1.000   S
 PCJI       44.80   1.000   S
# 2013 05 19 04 46 21.8  -08.47    111.56    109.0  3.6   0.0   0.0   0.392       269
 PWJI       17.50   1.000   P
 PCJI       18.30   1.000   P
 SWJI       20.00   1.000   P
 WOJI       20.90   1.000   P
 SMRI       30.40   1.000   P
 GRJI       30.80   1.000   P
 SWJI       34.60   1.000   S
 WOJI       35.90   1.000   S
 SCJI       39.20   1.000   P
 JAGI       40.80   1.000   P
 KMMI       43.00   1.000   P
 GRJI       53.70   1.000   S
 SMRI       54.30   1.000   S
 JAGI       70.80   1.000   S
 CGJI       86.90   1.000   P
# 2013 05 19 14 39 53.6  -08.76    111.06     25.0  2.1   0.0   0.0   0.282       270
 PCJI       12.30   1.000   P
 PWJI       16.70   1.000   P
 WOJI       16.80   1.000   P
 PCJI       21.40   1.000   S
 PWJI       30.00   1.000   S
 WOJI       30.10   1.000   S
# 2013 05 19 14 54 00.9  -09.16    111.47     10.0  2.4   0.0   0.0   0.679       271
 PCJI       17.10   1.000   P
 PWJI       19.20   1.000   P
 WOJI       24.40   1.000   P
 SWJI       43.70   1.000   P
 WOJI       43.90   1.000   S
# 2013 05 20 16 54 27.4  -10.25    111.47     11.0  4.3   0.0   0.0   0.620       272
 PCJI       33.10   1.000   P
 PWJI       36.10   1.000   P
 WOJI       39.70   1.000   P
 SWJI       40.30   1.000   P
 GMJI       43.90   1.000   P
 JAGI       50.30   1.000   P
 SMRI       52.40   1.000   P
 GRJI       53.70   1.000   P
 PWJI       60.80   1.000   S
 CTJI       61.50   1.000   P
 SKJI       86.50   1.000   P
 CGJI       99.30   1.000   P
# 2013 05 23 23 21 50.1  -09.08    111.28     50.0  4.1   0.0   0.0   1.229       273
 PCJI       14.80   1.000   P
 PWJI       18.80   1.000   P
 WOJI       21.00   1.000   P
 SWJI       22.90   1.000   P
 NGJI       30.20   1.000   P
 PWJI       32.20   1.000   S
 GMJI       34.60   1.000   P
 SMRI       36.10   1.000   P
 GRJI       38.60   1.000   P
 SWJI       41.30   1.000   S
 JAGI       42.80   1.000   P
 CTJI       44.60   1.000   P
# 2013 05 25 15 38 34.5  -08.98    110.48     17.0  3.9   0.0   0.0   0.894       274
 WOJI       21.30   1.000   P
 PWJI       26.40   1.000   P
 SWJI       29.00   1.000   P
 SCJI       30.80   1.000   P
 SMRI       33.60   1.000   P
 NGJI       33.60   1.000   P
 WOJI       38.10   1.000   S
 CTJI       39.10   1.000   P
 GRJI       44.30   1.000   P
 PWJI       46.70   1.000   S
 GMJI       47.20   1.000   P
 SWJI       51.80   1.000   S
  LEM       54.00   1.000   P
 JAGI       56.00   1.000   P
# 2013 05 25 17 05 18.5  -11.16    110.46     34.0  4.9   0.0   0.0   1.441       275
 PWJI       48.50   1.000   P
 WOJI       48.70   1.000   P
 SWJI       52.80   1.000   P
 NGJI       58.30   1.000   P
 GMJI       60.20   1.000   P
 SMRI       61.60   1.000   P
 CTJI       65.10   1.000   P
 JAGI       65.60   1.000   P
 GRJI       67.10   1.000   P
 BYJI       70.50   1.000   P
  LEM       76.90   1.000   P
 KMMI       77.50   1.000   P
 CBJI       82.90   1.000   P
 WOJI       85.30   1.000   S
 PWJI       85.40   1.000   S
 CGJI       95.30   1.000   P
# 2013 05 28 20 24 55.4  -10.86    111.65     10.0  4.3   0.0   0.0   0.986       276
 WOJI       47.90   1.000   P
 SWJI       48.80   1.000   P
 GMJI       49.40   1.000   P
 JAGI       53.70   1.000   P
 NGJI       56.60   1.000   P
 GRJI       62.20   1.000   P
 SMRI       62.60   1.000   P
 CTJI       69.10   1.000   P
 GMJI       85.60   1.000   S
 WOJI       87.00   1.000   S
 SKJI       93.30   1.000   P
 GRJI      109.80   1.000   S
# 2013 06 03 03 53 21.8  -09.12    110.41     17.0  3.4   0.0   0.0   0.747       277
 WOJI       24.40   1.000   P
 PWJI       28.00   1.000   P
 SWJI       31.70   1.000   P
 NGJI       34.60   1.000   P
 SMRI       35.30   1.000   P
 CTJI       39.70   1.000   P
 PWJI       49.50   1.000   S
 SWJI       55.90   1.000   S
# 2013 06 03 06 21 11.4  -08.42    110.60     53.0  2.9   0.0   0.0   0.340       278
 WOJI       15.10   1.000   P
 PWJI       20.60   1.000   P
 SWJI       22.20   1.000   P
 CTJI       31.30   1.000   P
# 2013 06 14 11 26 51.1  -09.01    110.52     16.0  4.7   0.0   0.0   1.191       279
 WOJI       22.40   1.000   P
 PWJI       27.20   1.000   P
 SWJI       30.10   1.000   P
 NGJI       33.80   1.000   P
 SMRI       34.40   1.000   P
 WOJI       37.50   1.000   S
 CTJI       39.60   1.000   P
 GRJI       45.30   1.000   P
  LEM       55.60   1.000   P
 JAGI       56.20   1.000   P
 CBJI       65.60   1.000   P
 CGJI       77.40   1.000   P
# 2013 06 15 10 04 58.7  -08.94    111.86     78.0  3.0   0.0   0.0   0.762       280
 PWJI       16.60   1.000   P
 SWJI       21.30   1.000   P
 WOJI       25.10   1.000   P
 NGJI       25.90   1.000   P
 GMJI       29.40   1.000   P
 PWJI       30.40   1.000   S
 SWJI       38.30   1.000   S
 WOJI       43.40   1.000   S
# 2013 06 17 09 36 42.9  -08.95    111.33     60.0  3.5   0.0   0.0   1.182       281
 PWJI       16.60   1.000   P
 WOJI       18.80   1.000   P
 SWJI       20.40   1.000   P
 NGJI       27.60   1.000   P
 PWJI       30.00   1.000   S
 GMJI       32.10   1.000   P
 WOJI       33.40   1.000   S
 SMRI       33.50   1.000   P
 JAGI       41.20   1.000   P
# 2013 06 21 17 36 48.3  -08.55    110.66     10.0  3.4   0.0   0.0   0.973       282
 PWJI       21.40   1.000   P
 SWJI       23.50   1.000   P
 NGJI       27.40   1.000   P
 SMRI       27.70   1.000   P
# 2013 06 23 09 11 54.5  -08.75    111.80     63.0  3.7   0.0   0.0   0.626       283
 PWJI       14.50   1.000   P
 SWJI       18.20   1.000   P
 WOJI       21.30   1.000   P
 PWJI       25.00   1.000   S
 NGJI       25.30   1.000   P
 GRJI       30.40   1.000   P
 SWJI       31.90   1.000   S
 SMRI       34.50   1.000   P
 JAGI       36.30   1.000   P
 WOJI       37.60   1.000   S
# 2013 06 28 07 13 11.8  -08.33    111.37    113.0  3.4   0.0   0.0   0.853       284
 PWJI       17.40   1.000   P
 SWJI       19.00   1.000   P
 WOJI       19.10   1.000   P
 NGJI       23.00   1.000   P
 SMRI       28.70   1.000   P
 WOJI       34.00   1.000   S
 GMJI       35.50   1.000   P
 NGJI       37.20   1.000   S
 CTJI       39.80   1.000   P
 GRJI       54.30   1.000   P
 GMJI       58.80   1.000   S
# 2013 07 04 19 10 00.1  -08.79    112.54     60.0  3.5   0.0   0.0   0.535       285
 PWJI       18.00   1.000   P
 SWJI       21.90   1.000   P
 JAGI       26.70   1.000   P
 NGJI       28.90   1.000   P
 WOJI       29.40   1.000   P
 BYJI       30.20   1.000   P
 GRJI       30.50   1.000   P
 PWJI       31.60   1.000   S
 KMMI       34.50   1.000   P
 SWJI       38.60   1.000   S
 JAGI       46.40   1.000   S
 WOJI       51.60   1.000   S
# 2013 07 08 13 27 18.7  -09.03    110.48     10.0  3.7   0.0   0.0   1.124       286
 WOJI       24.90   1.000   P
 PWJI       27.20   1.000   P
 SWJI       31.00   1.000   P
 NGJI       35.30   1.000   P
 WOJI       39.20   1.000   S
 CTJI       40.00   1.000   P
 GMJI       47.70   1.000   P
 SWJI       53.60   1.000   S
 JAGI       56.60   1.000   P
# 2013 07 09 01 55 55.1  -08.66    110.44     48.0  3.9   0.0   0.0   1.016       287
 WOJI       16.80   1.000   P
 PWJI       23.90   1.000   P
 SCJI       24.40   1.000   P
 SWJI       26.20   1.000   P
 NGJI       26.50   1.000   P
 WOJI       29.30   1.000   S
 CTJI       34.20   1.000   P
 PWJI       39.80   1.000   S
 SCJI       45.20   1.000   S
 SWJI       46.70   1.000   S
 NGJI       47.50   1.000   S
  LEM       51.60   1.000   P
 JAGI       54.40   1.000   P
# 2013 07 15 15 00 17.9  -09.20    111.99     33.0  4.9   0.0   0.0   1.563       288
 PWJI       19.00   1.000   P
 SWJI       23.20   1.000   P
 WOJI       27.30   1.000   P
 PWJI       30.90   1.000   S
 NGJI       32.50   1.000   P
 GRJI       36.30   1.000   P
 JAGI       37.40   1.000   P
 SMRI       41.40   1.000   P
 KMMI       45.00   1.000   P
 NGJI       55.90   1.000   S
 JAGI       62.90   1.000   S
 SMRI       71.80   1.000   S
  LEM       72.50   1.000   P
 KMMI       77.10   1.000   S
 CGJI       96.20   1.000   P
# 2013 07 21 18 14 30.4  -09.56    112.89     29.0  3.6   0.0   0.0   0.949       289
 GMJI       23.00   1.000   P
 JAGI       26.90   1.000   P
 PWJI       28.70   1.000   P
 SWJI       32.60   1.000   P
 BYJI       33.10   1.000   P
 WOJI       39.10   1.000   P
 GMJI       40.50   1.000   S
 NGJI       42.00   1.000   P
 JAGI       48.20   1.000   S
 WOJI       70.30   1.000   S
