# 2017 04 29 13 30 16.5  -08.29    111.95     68.0  2.8   0.0   0.0   0.920        70
 PWJI       13.30   1.000   P
 GMJI       25.40   1.000   P
 SWJI       25.40   1.000   P
 UWJI       33.70   1.000   P
# 2017 04 29 13 36 02.4  -09.65    111.80     10.0  3.7   0.0   0.0   0.858        71
 PWJI       27.80   1.000   P
 SWJI       32.50   1.000   P
 GMJI       34.50   1.000   P
 GRJI       44.90   1.000   P
 UWJI       52.80   1.000   P
# 2017 04 29 13 58 32.3  -09.65    111.70     31.0  3.7   0.0   0.0   1.016        72
 PWJI       25.20   1.000   P
 SWJI       29.50   1.000   P
 GMJI       32.10   1.000   P
 NGJI       35.90   1.000   P
 GRJI       43.70   1.000   P
# 2017 04 29 14 30 07.4  -09.78    111.72     34.0  4.9   0.0   0.0   1.465        73
 PWJI       26.30   1.000   P
 SWJI       30.90   1.000   P
 GMJI       33.20   1.000   P
 NGJI       38.00   1.000   P
 GRJI       44.40   1.000   P
 PWJI       49.80   1.000   S
 UWJI       50.40   1.000   P
 BWJI       57.00   1.000   P
# 2017 04 29 15 41 43.9  -09.75    111.84     10.0  3.5   0.0   0.0   0.804        74
 PWJI       29.30   1.000   P
 SWJI       33.70   1.000   P
 GMJI       36.20   1.000   P
 NGJI       40.50   1.000   P
 GRJI       45.90   1.000   P
# 2017 04 29 15 45 59.6  -09.66    111.67     30.0  4.7   0.0   0.0   1.421        75
 PWJI       24.00   1.000   P
 SWJI       28.70   1.000   P
 GMJI       34.30   1.000   P
 NGJI       37.20   1.000   P
 GRJI       42.00   1.000   P
 UWJI       50.60   1.000   P
 BWJI       58.20   1.000   P
# 2017 04 29 16 37 26.6  -08.15    111.92     10.0  3.1   0.0   0.0   0.968        76
 PWJI        4.10   1.000   P
 NGJI       16.50   1.000   P
 GMJI       25.80   1.000   P
 GRJI       26.30   1.000   P
 UWJI       32.80   1.000   P
# 2017 04 29 17 37 35.8  -09.84    111.63     29.0  4.0   0.0   0.0   0.994        77
 PWJI       27.60   1.000   P
 SWJI       31.30   1.000   P
 GMJI       36.10   1.000   P
 NGJI       39.90   1.000   P
 GRJI       46.00   1.000   P
 UWJI       50.80   1.000   P
# 2017 04 30 07 44 44.8  -09.35    111.77     51.0  3.6   0.0   0.0   0.726        78
 PWJI       22.00   1.000   P
 SWJI       24.80   1.000   P
 GMJI       30.60   1.000   P
 NGJI       31.90   1.000   P
 GRJI       38.00   1.000   P
# 2017 04 30 14 47 05.6  -09.59    111.80     10.0  3.8   0.0   0.0   0.845        79
 PWJI       25.80   1.000   P
 SWJI       30.40   1.000   P
 GMJI       34.60   1.000   P
 NGJI       39.00   1.000   P
 GRJI       44.00   1.000   P
 UWJI       52.30   1.000   P
# 2017 05 01 08 23 08.7  -09.31    110.33     10.0  3.9   0.0   0.0   1.047        80
 PWJI       31.60   1.000   P
 SWJI       35.00   1.000   P
 NGJI       39.10   1.000   P
 UWJI       48.00   1.000   P
 GRJI       51.20   1.000   P
 GMJI       51.40   1.000   P
 BWJI       62.80   1.000   P
# 2017 05 01 10 43 20.3  -09.80    111.65     40.0  4.6   0.0   0.0   1.239        81
 PWJI       25.60   1.000   P
 SWJI       29.70   1.000   P
 GMJI       35.90   1.000   P
 NGJI       37.70   1.000   P
 GRJI       44.40   1.000   P
 TBJI       44.40   1.000   P
 UWJI       50.30   1.000   P
 PWJI       50.60   1.000   S
 BWJI       59.10   1.000   P
# 2017 05 01 10 56 39.2  -09.79    111.65     10.0  3.9   0.0   0.0   0.829        82
 PWJI       29.30   1.000   P
 SWJI       33.20   1.000   P
 GMJI       38.50   1.000   P
 NGJI       39.60   1.000   P
 GRJI       47.10   1.000   P
# 2017 05 01 15 21 03.8  -09.31    110.35     10.0  3.8   0.0   0.0   0.871        83
 PWJI       31.60   1.000   P
 SWJI       34.40   1.000   P
 NGJI       38.70   1.000   P
 GRJI       50.50   1.000   P
 GMJI       50.70   1.000   P
# 2017 05 02 02 08 37.4  -09.21    110.78     10.0  3.7   0.0   0.0   0.669        84
 PWJI       26.80   1.000   P
 SWJI       29.90   1.000   P
 NGJI       33.00   1.000   P
 GRJI       44.30   1.000   P
 GMJI       44.70   1.000   P
# 2017 05 02 02 56 41.8  -09.63    111.75     22.0  3.8   0.0   0.0   0.802        85
 PWJI       25.80   1.000   P
 SWJI       30.80   1.000   P
 GMJI       34.40   1.000   P
 SWJI       36.70   1.000   S
 NGJI       36.80   1.000   P
 PWJI       48.40   1.000   S
# 2017 05 02 14 18 51.4  -09.79    111.68     10.0  4.2   0.0   0.0   1.042        86
 PWJI       28.30   1.000   P
 SWJI       32.30   1.000   P
 GMJI       36.40   1.000   P
 NGJI       39.80   1.000   P
 TBJI       46.30   1.000   P
# 2017 05 02 20 02 49.4  -09.70    111.76     18.0  4.6   0.0   0.0   1.314        87
 PWJI       27.00   1.000   P
 SWJI       30.20   1.000   P
 GMJI       33.70   1.000   P
 NGJI       39.00   1.000   P
 GRJI       45.50   1.000   P
 TBJI       46.90   1.000   P
 UWJI       51.30   1.000   P
 BWJI       59.40   1.000   P
# 2017 05 03 05 19 44.6  -09.74    111.73     10.0  3.9   0.0   0.0   0.803        88
 PWJI       28.00   1.000   P
 SWJI       33.30   1.000   P
 GMJI       35.90   1.000   P
 UWJI       54.80   1.000   P
# 2017 05 04 03 40 25.6  -09.72    111.68     25.0  3.8   0.0   0.0   0.845        89
 PWJI       26.50   1.000   P
 SWJI       31.90   1.000   P
 GMJI       34.60   1.000   P
 PWJI       49.50   1.000   S
# 2017 05 04 13 08 41.6  -08.75    110.59     27.0  3.3   0.0   0.0   0.679        90
 PWJI       23.40   1.000   P
 SWJI       25.80   1.000   P
 UWJI       37.10   1.000   P
 GMJI       43.50   1.000   P
 SWJI       45.80   1.000   S
 GMJI       77.50   1.000   S
# 2017 05 05 02 53 33.6  -05.82    110.08    559.0  4.7   0.0   0.0   1.236        91
 UWJI       68.00   1.000   P
 TBJI       71.90   1.000   P
 NGJI       72.70   1.000   P
 SWJI       73.80   1.000   P
 PWJI       74.50   1.000   P
 GRJI       74.90   1.000   P
 GMJI       83.50   1.000   P
# 2017 05 10 19 50 12.7  -09.09    111.17     48.0  3.4   0.0   0.0   0.552        92
 PWJI       21.10   1.000   P
 SWJI       24.80   1.000   P
 NGJI       28.20   1.000   P
 TBJI       36.10   1.000   P
 GMJI       36.40   1.000   P
 GRJI       39.40   1.000   P
 UWJI       39.60   1.000   P
 SWJI       42.70   1.000   S
# 2017 05 15 04 57 31.4  -09.57    111.80     10.0  3.5   0.0   0.0   0.697        93
 PWJI       26.30   1.000   P
 SWJI       30.70   1.000   P
 GMJI       35.40   1.000   P
 NGJI       37.00   1.000   P
# 2017 05 15 23 42 45.8  -07.34    111.54     22.0  2.5   0.0   0.0   0.682        94
 NGJI        5.70   1.000   P
 SWJI       10.30   1.000   P
 TBJI       12.10   1.000   P
 PWJI       13.20   1.000   P
 GRJI       19.20   1.000   P
 UWJI       19.50   1.000   P
 GRJI       33.00   1.000   S
# 2017 05 16 21 06 22.5  -08.77    110.72     50.0  4.1   0.0   0.0   0.074        95
 PWJI       21.10   1.000   P
 SWJI       23.50   1.000   P
 NGJI       25.00   1.000   P
 TBJI       34.30   1.000   P
 UWJI       35.50   1.000   P
 GRJI       38.10   1.000   P
 GMJI       41.00   1.000   P
 NGJI       44.80   1.000   S
 BWJI       51.10   1.000   P
 TBJI       60.90   1.000   S
# 2017 05 23 06 51 18.1  -09.26    111.27     10.0  3.7   0.0   0.0   0.970        96
 PWJI       22.40   1.000   P
 SWJI       26.60   1.000   P
 NGJI       34.10   1.000   P
 GMJI       37.60   1.000   P
 GRJI       42.20   1.000   P
 UWJI       45.80   1.000   P
# 2017 05 23 12 39 37.1  -09.26    112.01     29.0  3.3   0.0   0.0   0.173        97
 PWJI       21.10   1.000   P
 SWJI       25.50   1.000   P
 GMJI       27.90   1.000   P
 PWJI       37.40   1.000   S
 SWJI       45.10   1.000   S
 GMJI       49.60   1.000   S
# 2017 05 23 20 30 39.5  -09.10    112.88     11.0  3.2   0.0   0.0   1.254        98
 GMJI       19.20   1.000   P
 PWJI       26.60   1.000   P
 SWJI       31.30   1.000   P
 GMJI       31.60   1.000   S
 PWJI       44.60   1.000   S
# 2017 05 24 16 44 53.5  -09.04    111.93     61.0  5.1   0.0   0.0   1.492        99
 PWJI       18.00   1.000   P
 SWJI       21.80   1.000   P
 GMJI       26.50   1.000   P
 NGJI       30.00   1.000   P
 PWJI       30.30   1.000   S
 GRJI       34.50   1.000   P
 SWJI       37.60   1.000   S
 UWJI       42.80   1.000   P
 GMJI       46.00   1.000   S
 BWJI       49.40   1.000   P
 NGJI       49.60   1.000   S
 GRJI       60.00   1.000   S
 UWJI       74.20   1.000   S
 BWJI       86.50   1.000   S
# 2017 05 25 08 03 02.2  -09.01    110.17     28.0  3.4   0.0   0.0   0.851       100
 PWJI       31.00   1.000   P
 SWJI       33.30   1.000   P
 PWJI       52.70   1.000   S
 SWJI       58.00   1.000   S
# 2017 05 25 17 54 33.4  -08.61    111.06     10.0  2.7   0.0   0.0   0.269       101
 PWJI       18.00   1.000   P
 SWJI       21.00   1.000   P
# 2017 05 25 18 05 12.6  -09.60    112.89     10.0  3.6   0.0   0.0   0.920       102
 GMJI       24.60   1.000   P
 PWJI       31.00   1.000   P
 SWJI       35.30   1.000   P
 NGJI       41.80   1.000   P
 GRJI       44.80   1.000   P
# 2017 05 25 23 16 28.5  -08.36    111.66    104.0  3.1   0.0   0.0   0.405       103
 PWJI       16.10   1.000   P
 SWJI       18.60   1.000   P
 GRJI       28.50   1.000   P
 PWJI       29.40   1.000   S
 GMJI       30.10   1.000   P
 UWJI       32.90   1.000   P
 SWJI       33.10   1.000   S
# 2017 05 29 15 32 57.7  -09.60    111.81     10.0  3.7   0.0   0.0   0.672       104
 PWJI       26.70   1.000   P
 SWJI       30.60   1.000   P
 GMJI       34.80   1.000   P
 GMJI       62.70   1.000   S
# 2017 05 30 02 13 52.5  -09.20    110.39     26.0  3.9   0.0   0.0   0.504       105
 PWJI       28.70   1.000   P
 SWJI       31.90   1.000   P
 UWJI       42.10   1.000   P
 GRJI       47.00   1.000   P
 GMJI       48.20   1.000   P
 SWJI       56.80   1.000   S
 BWJI       60.40   1.000   P
# 2017 05 30 12 17 46.1  -09.41    112.86     14.0  3.3   0.0   0.0   1.004       106
 GMJI       24.00   1.000   P
 PWJI       29.40   1.000   P
 SWJI       32.10   1.000   P
 GMJI       37.40   1.000   S
 PWJI       51.60   1.000   S
# 2017 06 01 09 21 41.8  -08.38    111.40    126.0  3.7   0.0   0.0   0.666       107
 PWJI       19.00   1.000   P
 SWJI       21.20   1.000   P
 GRJI       31.80   1.000   P
 UWJI       33.10   1.000   P
 PWJI       33.90   1.000   S
 GMJI       34.20   1.000   P
 GMJI       60.60   1.000   S
# 2017 06 02 15 40 15.8  -08.89    110.13     26.0  3.0   0.0   0.0   0.817       108
 PWJI       30.10   1.000   P
 SWJI       31.70   1.000   P
 PWJI       53.60   1.000   S
 SWJI       57.00   1.000   S
# 2017 06 10 22 06 26.3  -09.07    110.62     86.0  4.0   0.0   0.0   0.603       109
 PWJI       25.80   1.000   P
 SWJI       28.30   1.000   P
 NGJI       32.20   1.000   P
 UWJI       40.00   1.000   P
 GRJI       43.00   1.000   P
 GMJI       44.00   1.000   P
# 2017 06 11 03 40 28.2  -09.52    112.86     10.0  3.6   0.0   0.0   0.748       110
 GMJI       24.40   1.000   P
 PWJI       30.50   1.000   P
 SWJI       35.00   1.000   P
 NGJI       41.40   1.000   P
 GRJI       44.10   1.000   P
 UWJI       55.80   1.000   P
# 2017 06 13 23 29 46.3  -09.11    111.53     10.0  3.2   0.0   0.0   0.384       111
 PWJI       21.00   1.000   P
 SWJI       25.20   1.000   P
 GMJI       34.70   1.000   P
 PWJI       35.70   1.000   S
 SWJI       43.80   1.000   S
# 2017 06 16 19 33 52.3  -07.81    111.79     10.0  2.6   0.0   0.0   1.006       112
 SWJI        1.20   1.000   P
 PWJI        5.60   1.000   P
 NGJI       12.60   1.000   P
 GRJI       20.50   1.000   P
 GMJI       29.40   1.000   P
 UWJI       29.70   1.000   P
# 2017 06 17 01 43 09.8  -08.92    111.08     10.0  3.4   0.0   0.0   0.820       113
 PWJI       21.80   1.000   P
 SWJI       25.60   1.000   P
 PWJI       36.60   1.000   S
 SWJI       42.80   1.000   S
# 2017 06 17 08 49 33.3  -08.72    112.84     98.0  2.9   0.0   0.0   0.192       114
 GMJI       18.10   1.000   P
 PWJI       23.00   1.000   P
 SWJI       25.20   1.000   P
 NGJI       31.30   1.000   P
 GMJI       32.70   1.000   S
# 2017 06 26 19 50 51.2  -09.30    112.75     10.0  3.1   0.0   0.0   0.933       115
 GMJI       22.00   1.000   P
 SWJI       31.10   1.000   P
 GMJI       39.40   1.000   S
# 2017 06 27 11 33 45.7  -09.06    112.93     10.0  3.2   0.0   0.0   1.182       116
 GMJI       17.40   1.000   P
 PWJI       26.70   1.000   P
 GMJI       30.90   1.000   S
 SWJI       31.70   1.000   P
 GRJI       36.70   1.000   P
 PWJI       46.70   1.000   S
# 2017 06 28 04 30 22.1  -09.02    112.66     29.0  3.7   0.0   0.0   0.944       117
 GMJI       18.40   1.000   P
 PWJI       21.30   1.000   P
 SWJI       25.40   1.000   P
 GMJI       32.20   1.000   S
 GRJI       34.30   1.000   P
 TBJI       36.60   1.000   P
 PWJI       37.40   1.000   S
 GRJI       59.40   1.000   S
# 2017 06 30 03 58 09.8  -07.64    110.97    215.0  3.5   0.0   0.0   0.937       118
 NGJI       30.50   1.000   P
 PWJI       30.70   1.000   P
 SWJI       30.80   1.000   P
 TBJI       31.80   1.000   P
 UWJI       32.10   1.000   P
 GRJI       36.30   1.000   P
 GMJI       45.10   1.000   P
 PWJI       55.90   1.000   S
 TBJI       59.00   1.000   S
 GRJI       64.80   1.000   S
 GMJI       81.00   1.000   S
# 2017 07 02 00 23 45.6  -09.30    110.36     20.0  3.9   0.0   0.0   1.037       119
 SWJI       34.90   1.000   P
 UWJI       45.20   1.000   P
 GMJI       49.20   1.000   P
 GRJI       49.70   1.000   P
 SWJI       58.60   1.000   S
 GRJI       85.50   1.000   S
# 2017 07 10 17 17 02.2  -05.92    110.15    559.0  4.4   0.0   0.0   1.081       120
 UWJI       67.40   1.000   P
 NGJI       72.90   1.000   P
 SWJI       73.40   1.000   P
 GRJI       73.90   1.000   P
 GMJI       82.90   1.000   P
# 2017 07 11 01 37 58.6  -09.34    112.38     10.0  4.0   0.0   0.0   0.974       121
 GMJI       25.90   1.000   P
 SWJI       29.30   1.000   P
 GRJI       39.50   1.000   P
 GMJI       43.90   1.000   S
 SWJI       50.50   1.000   S
# 2017 07 14 16 05 39.4  -08.71    110.52     21.0  4.3   0.0   0.0   0.778       122
 SWJI       26.90   1.000   P
 NGJI       29.10   1.000   P
 UWJI       36.40   1.000   P
 GRJI       41.20   1.000   P
 GMJI       44.70   1.000   P
 SWJI       45.90   1.000   S
 BWJI       53.20   1.000   P
# 2017 07 16 07 50 26.6  -07.37    110.07     10.0  3.0   0.0   0.0   0.671       123
 UWJI       23.90   1.000   P
 UWJI       40.90   1.000   S
# 2017 07 17 09 05 51.7  -09.79    111.86     10.0  4.6   0.0   0.0   1.316       124
 PWJI       28.40   1.000   P
 SWJI       33.20   1.000   P
 GMJI       33.40   1.000   P
 NGJI       41.90   1.000   P
 GRJI       45.30   1.000   P
 UWJI       54.00   1.000   P
# 2017 07 19 02 43 06.6  -08.95    111.29     26.0  4.0   0.0   0.0   0.867       125
 PWJI       18.30   1.000   P
 SWJI       22.50   1.000   P
 NGJI       29.50   1.000   P
 PWJI       32.30   1.000   S
 GMJI       35.40   1.000   P
 SWJI       39.90   1.000   S
# 2017 07 19 15 27 22.7  -08.89    112.52     22.0  4.0   0.0   0.0   0.469       126
 PWJI       19.20   1.000   P
 GMJI       19.30   1.000   P
 SWJI       22.90   1.000   P
 NGJI       29.80   1.000   P
 GRJI       31.40   1.000   P
 GMJI       34.20   1.000   S
 SWJI       40.20   1.000   S
 UWJI       44.00   1.000   P
 BWJI       45.90   1.000   P
# 2017 07 20 04 12 21.4  -09.24    110.41     31.0  5.0   0.0   0.0   0.949       127
 SWJI       30.20   1.000   P
 NGJI       35.20   1.000   P
 UWJI       43.70   1.000   P
 GRJI       46.10   1.000   P
 GMJI       46.60   1.000   P
 BWJI       58.40   1.000   P
 NGJI       60.70   1.000   S
# 2017 07 21 09 16 02.8  -09.58    111.86     10.0  3.9   0.0   0.0   0.448       128
 PWJI       27.00   1.000   P
 GMJI       33.20   1.000   P
 NGJI       36.90   1.000   P
 GRJI       44.00   1.000   P
# 2017 07 21 22 33 57.8  -08.36    112.05    112.0  3.3   0.0   0.0   0.305       129
 SWJI       19.00   1.000   P
 GMJI       25.80   1.000   P
 GRJI       27.00   1.000   P
 SWJI       34.30   1.000   S
 GMJI       45.30   1.000   S
# 2017 07 22 17 31 10.1  -08.59    110.44     16.0  2.9   0.0   0.0   0.861       130
 PWJI       25.50   1.000   P
 SWJI       27.60   1.000   P
 PWJI       43.00   1.000   S
 SWJI       49.10   1.000   S
# 2017 07 23 12 28 58.6  -06.82    112.50     10.0  4.5   0.0   0.0   0.766       131
 GRJI        2.20   1.000   P
 GRJI        4.40   1.000   S
 BWJI       18.20   1.000   P
 SWJI       21.00   1.000   P
 NGJI       22.20   1.000   P
 PWJI       24.50   1.000   P
 UWJI       26.80   1.000   P
 GMJI       29.70   1.000   P
 BWJI       31.80   1.000   S
 SWJI       37.60   1.000   S
 NGJI       38.60   1.000   S
 PWJI       43.70   1.000   S
 UWJI       49.20   1.000   S
# 2017 07 23 12 43 09.8  -06.84    112.49     10.0  3.2   0.0   0.0   0.887       132
 GRJI        2.30   1.000   P
 GRJI        3.90   1.000   S
 BWJI       19.70   1.000   P
 SWJI       20.80   1.000   P
 NGJI       22.60   1.000   P
 PWJI       24.00   1.000   P
 UWJI       26.60   1.000   P
 GMJI       29.60   1.000   P
 BWJI       32.90   1.000   S
 NGJI       37.80   1.000   S
 SWJI       38.20   1.000   S
 PWJI       43.20   1.000   S
 UWJI       49.80   1.000   S
# 2017 07 24 14 38 16.1  -09.43    112.81     10.0  3.6   0.0   0.0   0.950       133
 GMJI       23.20   1.000   P
 PWJI       30.00   1.000   P
 SWJI       34.20   1.000   P
 GRJI       40.50   1.000   P
 PWJI       52.10   1.000   S
# 2017 07 28 15 34 53.6  -09.12    111.26     10.0  3.7   0.0   0.0   0.653       134
 PWJI       21.70   1.000   P
 SWJI       25.80   1.000   P
 NGJI       31.70   1.000   P
 GMJI       37.60   1.000   P
 BWJI       55.40   1.000   P
# 2017 07 29 02 29 18.7  -09.78    111.87     10.0  4.1   0.0   0.0   0.899       135
 SWJI       32.30   1.000   P
 GMJI       33.80   1.000   P
 NGJI       41.60   1.000   P
 GRJI       47.10   1.000   P
# 2017 07 29 17 29 25.2  -09.07    111.30     10.0  3.4   0.0   0.0   0.491       136
 SWJI       25.10   1.000   P
 NGJI       30.20   1.000   P
 GMJI       37.10   1.000   P
 GRJI       39.60   1.000   P
# 2017 08 02 23 49 20.3  -08.31    111.28     10.0  3.3   0.0   0.0   0.545       137
 SWJI       15.40   1.000   P
 SWJI       25.40   1.000   S
 GRJI       31.20   1.000   P
 GMJI       36.10   1.000   P
# 2017 08 11 11 38 33.3  -08.52    110.14     74.0  4.1   0.0   0.0   0.872       138
 WOJI       19.20   1.000   P
 PWJI       28.50   1.000   P
 SWJI       30.50   1.000   P
 UWJI       33.80   1.000   P
 GRJI       42.60   1.000   P
 GMJI       49.90   1.000   P
# 2017 08 13 00 35 39.6  -09.48    110.82     28.0  4.2   0.0   0.0   0.522       139
 WOJI       27.60   1.000   P
 SWJI       31.40   1.000   P
 NGJI       35.00   1.000   P
 GMJI       43.90   1.000   P
 GRJI       45.00   1.000   P
 SWJI       55.60   1.000   S
 NGJI       61.80   1.000   S
 GMJI       77.90   1.000   S
 GRJI       81.70   1.000   S
# 2017 08 13 10 44 59.4  -09.34    110.30     10.0  3.9   0.0   0.0   1.160       140
 WOJI       27.50   1.000   P
 PWJI       31.70   1.000   P
 SWJI       35.20   1.000   P
 NGJI       40.90   1.000   P
 GMJI       52.00   1.000   P
# 2017 08 13 18 53 48.2  -07.95    111.50    126.0  2.9   0.0   0.0   0.345       141
 SWJI       19.10   1.000   P
 WOJI       20.00   1.000   P
 UWJI       29.50   1.000   P
 GMJI       33.00   1.000   P
 WOJI       35.90   1.000   S
 GMJI       58.80   1.000   S
# 2017 08 14 10 44 29.8  -08.80    110.44     29.0  3.3   0.0   0.0   0.563       142
 WOJI       18.70   1.000   P
 NGJI       27.10   1.000   P
 SWJI       27.90   1.000   P
 WOJI       33.60   1.000   S
 UWJI       37.80   1.000   P
 SWJI       48.60   1.000   S
# 2017 08 16 11 49 10.7  -08.54    110.79     11.0  3.1   0.0   0.0   0.543       143
 WOJI       13.90   1.000   P
 SWJI       22.40   1.000   P
 NGJI       25.40   1.000   P
# 2017 08 17 17 32 36.2  -08.96    112.81     13.0  3.8   0.0   0.0   0.697       144
 GMJI       17.50   1.000   P
 SWJI       27.60   1.000   P
 GMJI       30.10   1.000   S
 GRJI       34.60   1.000   P
 NGJI       34.70   1.000   P
 WOJI       35.70   1.000   P
 UWJI       48.80   1.000   P
