# 2017 01 01 04 58 13.7  -08.96    110.00     10.0  4.0   0.0   0.0   0.894         1
 PWJI       32.90   1.000   P
 SWJI       35.50   1.000   P
 UWJI       43.30   1.000   P
 TBJI       46.00   1.000   P
 GRJI       50.00   1.000   P
 GMJI       53.80   1.000   P
# 2017 01 04 13 14 07.5  -08.73    110.61     35.0  3.3   0.0   0.0   0.437         2
 PWJI       22.80   1.000   P
 SWJI       25.10   1.000   P
 GMJI       42.10   1.000   P
 SWJI       43.90   1.000   S
# 2017 01 06 10 21 45.5  -08.71    111.89     30.0  3.4   0.0   0.0   0.399         3
 PWJI       14.10   1.000   P
 SWJI       17.80   1.000   P
 NGJI       23.60   1.000   P
 PWJI       23.90   1.000   S
 GMJI       26.30   1.000   P
 GRJI       29.80   1.000   P
 TBJI       30.30   1.000   P
 SWJI       30.90   1.000   S
 NGJI       41.90   1.000   S
 GMJI       46.00   1.000   S
# 2017 01 09 05 15 15.4  -08.83    110.73     27.0  3.0   0.0   0.0   0.282         4
 PWJI       22.60   1.000   P
 SWJI       25.30   1.000   P
 PWJI       39.70   1.000   S
 SWJI       44.70   1.000   S
# 2017 01 13 14 24 58.5  -07.99    110.37     10.0  4.0   0.0   0.0   0.530         5
 NGJI       23.90   1.000   P
 UWJI       29.60   1.000   P
 GMJI       48.50   1.000   P
 BWJI       49.50   1.000   P
# 2017 01 16 07 31 56.9  -09.56    112.22     10.0  3.3   0.0   0.0   0.697         6
 PWJI       28.10   1.000   P
 GMJI       29.50   1.000   P
 SWJI       33.10   1.000   P
 PWJI       48.50   1.000   S
# 2017 01 18 17 57 25.6  -08.99    110.19     67.0  3.8   0.0   0.0   0.873         7
 PWJI       30.40   1.000   P
 SWJI       32.90   1.000   P
 NGJI       33.10   1.000   P
 UWJI       38.80   1.000   P
 GMJI       48.90   1.000   P
 PWJI       51.20   1.000   S
 SWJI       56.50   1.000   S
# 2017 01 24 21 41 10.9  -09.30    112.98     10.0  3.2   0.0   0.0   0.859         8
 GMJI       20.50   1.000   P
 PWJI       30.00   1.000   P
 SWJI       33.50   1.000   P
 GRJI       38.80   1.000   P
# 2017 01 28 09 28 35.7  -09.67    112.89     41.0  4.8   0.0   0.0   0.556         9
 GMJI       23.80   1.000   P
 PWJI       30.00   1.000   P
 SWJI       34.10   1.000   P
 NGJI       40.80   1.000   P
 GRJI       41.80   1.000   P
 GMJI       42.40   1.000   S
 TBJI       45.20   1.000   P
 PWJI       54.30   1.000   S
 UWJI       55.20   1.000   P
 BWJI       55.90   1.000   P
# 2017 01 29 11 57 27.7  -09.61    112.85     46.0  4.8   0.0   0.0   1.854        10
 GMJI       21.30   1.000   P
 PWJI       28.50   1.000   P
 SWJI       32.60   1.000   P
 NGJI       42.40   1.000   P
 GRJI       42.50   1.000   P
 PWJI       50.10   1.000   S
 BWJI       56.10   1.000   P
# 2017 01 29 12 07 54.8  -09.55    112.88     23.0  4.0   0.0   0.0   0.827        11
 GMJI       22.50   1.000   P
 PWJI       29.40   1.000   P
 SWJI       34.60   1.000   P
 BWJI       56.90   1.000   P
 SWJI       61.30   1.000   S
# 2017 01 30 16 45 39.5  -09.31    112.92     15.0  3.4   0.0   0.0   0.542        12
 GMJI       21.90   1.000   P
 PWJI       28.20   1.000   P
 SWJI       32.50   1.000   P
 GMJI       36.70   1.000   S
 PWJI       50.50   1.000   S
# 2017 02 06 21 21 12.3  -09.28    112.07     20.0  4.1   0.0   0.0   1.108        13
 PWJI       21.80   1.000   P
 SWJI       26.20   1.000   P
 GMJI       27.00   1.000   P
 NGJI       35.70   1.000   P
 PWJI       37.80   1.000   S
 GRJI       39.20   1.000   P
 SWJI       46.20   1.000   S
 GMJI       48.10   1.000   S
 BWJI       53.50   1.000   P
 GRJI       68.30   1.000   S
# 2017 02 07 08 25 24.8  -09.10    110.25     10.0  4.5   0.0   0.0   1.013        14
 PWJI       30.60   1.000   P
 SWJI       33.30   1.000   P
 NGJI       37.00   1.000   P
 TBJI       44.00   1.000   P
 UWJI       44.90   1.000   P
 GRJI       47.20   1.000   P
 GMJI       51.80   1.000   P
# 2017 02 10 06 33 58.8  -08.61    110.67     50.0  3.5   0.0   0.0   0.398        15
 PWJI       21.20   1.000   P
 SWJI       23.10   1.000   P
 NGJI       24.30   1.000   P
 TBJI       33.20   1.000   P
 UWJI       33.70   1.000   P
 GRJI       36.40   1.000   P
 PWJI       37.80   1.000   S
 SWJI       41.20   1.000   S
 GMJI       42.30   1.000   P
 NGJI       42.70   1.000   S
# 2017 02 10 11 23 13.3  -09.95    111.61     10.0  3.6   0.0   0.0   1.028        16
 PWJI       32.50   1.000   P
 SWJI       36.20   1.000   P
 GMJI       40.70   1.000   P
 NGJI       42.70   1.000   P
 PWJI       58.00   1.000   S
# 2017 02 12 05 41 48.8  -09.02    110.52     34.0  4.0   0.0   0.0   0.240        17
 PWJI       25.20   1.000   P
 SWJI       28.00   1.000   P
 NGJI       30.20   1.000   P
 TBJI       39.10   1.000   P
 UWJI       40.10   1.000   P
 GRJI       43.40   1.000   P
 GMJI       45.20   1.000   P
 BWJI       56.30   1.000   P
 TBJI       69.60   1.000   S
 GRJI       76.90   1.000   S
# 2017 02 12 06 42 43.9  -09.39    112.09     40.0  4.8   0.0   0.0   0.544        18
 PWJI       22.10   1.000   P
 GMJI       26.50   1.000   P
 SWJI       26.60   1.000   P
 NGJI       32.90   1.000   P
 GRJI       37.80   1.000   P
 TBJI       39.30   1.000   P
 PWJI       40.50   1.000   S
 UWJI       47.30   1.000   P
 SWJI       47.60   1.000   S
 GMJI       49.10   1.000   S
 BWJI       52.60   1.000   P
 TBJI       69.60   1.000   S
# 2017 02 18 18 13 35.2  -10.17    112.95     12.0  3.9   0.0   0.0   1.042        19
 GMJI       31.50   1.000   P
 PWJI       38.30   1.000   P
 SWJI       43.00   1.000   P
 NGJI       50.50   1.000   P
# 2017 02 22 17 21 26.7  -09.44    112.85     10.0  3.3   0.0   0.0   0.813        20
 GMJI       22.30   1.000   P
 PWJI       29.00   1.000   P
 SWJI       33.70   1.000   P
 NGJI       39.50   1.000   P
 GRJI       39.90   1.000   P
 GMJI       41.60   1.000   S
# 2017 02 26 17 08 06.2  -09.51    110.58     30.0  3.4   0.0   0.0   0.579        21
 PWJI       29.80   1.000   P
 PWJI       30.50   1.000   S
 SWJI       33.10   1.000   P
 SWJI       33.70   1.000   S
 GMJI       46.80   1.000   P
 UWJI       47.40   1.000   P
 GRJI       47.80   1.000   P
 GMJI       48.00   1.000   S
# 2017 02 27 02 43 03.8  -08.75    112.17     34.0  2.7   0.0   0.0   0.570        22
 PWJI       15.30   1.000   P
 SWJI       19.60   1.000   P
 GMJI       22.40   1.000   P
 PWJI       26.90   1.000   S
 GMJI       40.70   1.000   S
# 2017 03 02 08 51 56.5  -08.29    110.69     60.0  3.3   0.0   0.0   0.415        23
 PWJI       19.70   1.000   P
 NGJI       19.80   1.000   P
 SWJI       21.50   1.000   P
 UWJI       29.70   1.000   P
 TBJI       29.80   1.000   P
 PWJI       34.50   1.000   S
 GRJI       34.80   1.000   P
 GMJI       41.70   1.000   P
 BWJI       46.90   1.000   P
# 2017 03 05 11 59 25.6  -09.24    110.49     10.0  3.3   0.0   0.0   0.607        24
 PWJI       30.70   1.000   P
 SWJI       33.20   1.000   P
 GMJI       48.70   1.000   P
 PWJI       53.60   1.000   S
# 2017 03 08 02 15 06.8  -09.08    110.18     14.0  4.1   0.0   0.0   0.398        25
 PWJI       31.80   1.000   P
 SWJI       34.30   1.000   P
 NGJI       36.00   1.000   P
 UWJI       42.60   1.000   P
 GRJI       48.60   1.000   P
# 2017 03 15 02 34 02.9  -09.29    110.03     46.0  4.1   0.0   0.0   1.302        26
 PWJI       33.50   1.000   P
 SWJI       36.10   1.000   P
 NGJI       39.40   1.000   P
 UWJI       45.30   1.000   P
 TBJI       46.00   1.000   P
 GRJI       51.30   1.000   P
 GMJI       52.20   1.000   P
 PWJI       56.90   1.000   S
 SWJI       62.30   1.000   S
# 2017 03 15 13 47 53.8  -09.47    112.78     10.0  3.5   0.0   0.0   0.639        27
 GMJI       24.10   1.000   P
 PWJI       29.50   1.000   P
 SWJI       34.40   1.000   P
 GMJI       42.20   1.000   S
# 2017 03 15 14 20 15.8  -09.53    112.83     10.0  3.3   0.0   0.0   0.810        28
 GMJI       24.10   1.000   P
 PWJI       29.90   1.000   P
 SWJI       35.30   1.000   P
 GMJI       42.80   1.000   S
# 2017 03 15 16 41 58.1  -09.00    111.24     10.0  3.2   0.0   0.0   0.405        29
 PWJI       20.90   1.000   P
 SWJI       24.70   1.000   P
 PWJI       35.50   1.000   S
 GMJI       37.10   1.000   P
 SWJI       43.00   1.000   S
# 2017 03 16 02 35 58.5  -09.45    112.88     10.0  3.3   0.0   0.0   1.360        30
 GMJI       23.60   1.000   P
 PWJI       29.70   1.000   P
 GMJI       38.50   1.000   S
 PWJI       55.40   1.000   S
# 2017 03 20 16 56 31.5  -07.58    111.73     10.0  3.2   0.0   0.0   0.889        31
 SWJI        4.00   1.000   P
 SWJI        7.80   1.000   S
 NGJI        8.40   1.000   P
 PWJI        9.10   1.000   P
 TBJI       13.70   1.000   P
 PWJI       15.20   1.000   S
 GRJI       18.10   1.000   P
 UWJI       24.30   1.000   P
 TBJI       25.40   1.000   S
 GMJI       32.10   1.000   P
 GRJI       33.30   1.000   S
 BWJI       34.20   1.000   P
 UWJI       43.30   1.000   S
# 2017 03 28 12 50 30.1  -09.26    111.25     10.0  4.0   0.0   0.0   0.839        32
 PWJI       24.60   1.000   P
 SWJI       28.60   1.000   P
 NGJI       34.80   1.000   P
 GMJI       39.20   1.000   P
 PWJI       41.90   1.000   S
 GRJI       42.70   1.000   P
 UWJI       45.60   1.000   P
 SWJI       49.00   1.000   S
# 2017 03 31 22 49 37.8  -09.02    112.26     10.0  3.9   0.0   0.0   1.241        33
 PWJI       20.10   1.000   P
 SWJI       24.80   1.000   P
 GMJI       25.40   1.000   P
 NGJI       33.90   1.000   P
 PWJI       34.80   1.000   S
 GMJI       41.90   1.000   S
# 2017 04 04 20 09 42.7  -07.52    111.62    209.0  3.3   0.0   0.0   0.618        34
 SWJI       27.80   1.000   P
 NGJI       28.20   1.000   P
 PWJI       28.50   1.000   P
 GRJI       31.50   1.000   P
 GMJI       39.50   1.000   P
 PWJI       51.20   1.000   S
# 2017 04 05 11 40 45.1  -07.51    111.40     78.0  2.6   0.0   0.0   0.942        35
 NGJI       11.80   1.000   P
 PWJI       14.90   1.000   P
 SWJI       15.50   1.000   P
 TBJI       18.90   1.000   P
 GRJI       20.60   1.000   P
 PWJI       29.00   1.000   S
# 2017 04 05 14 00 28.6  -08.83    110.21     28.0  3.2   0.0   0.0   0.605        36
 PWJI       28.70   1.000   P
 SWJI       30.60   1.000   P
 GMJI       49.20   1.000   P
 PWJI       49.80   1.000   S
 SWJI       54.70   1.000   S
# 2017 04 08 05 30 12.1  -08.94    112.42     10.0  3.2   0.0   0.0   0.543        37
 PWJI       20.40   1.000   P
 GMJI       22.00   1.000   P
 SWJI       24.50   1.000   P
 NGJI       31.80   1.000   P
 GRJI       34.40   1.000   P
# 2017 04 08 08 17 12.9  -08.14    112.58     10.0  3.8   0.0   0.0   0.777        38
 PWJI       13.60   1.000   P
 GMJI       15.80   1.000   P
 SWJI       16.30   1.000   P
 GRJI       22.30   1.000   P
 NGJI       26.20   1.000   P
 TBJI       27.10   1.000   P
 UWJI       37.80   1.000   P
 BWJI       37.80   1.000   P
# 2017 04 09 11 50 46.3  -08.74    110.81     19.0  3.1   0.0   0.0   0.669        39
 PWJI       20.80   1.000   P
 SWJI       23.60   1.000   P
 NGJI       25.90   1.000   P
 GMJI       41.40   1.000   P
 SWJI       42.10   1.000   S
# 2017 04 09 23 22 45.6  -09.71    111.70     39.0  4.8   0.0   0.0   1.326        40
 PWJI       24.40   1.000   P
 SWJI       28.90   1.000   P
 GMJI       33.40   1.000   P
 NGJI       37.60   1.000   P
 TBJI       43.90   1.000   P
 GRJI       44.00   1.000   P
 UWJI       50.20   1.000   P
# 2017 04 10 12 05 46.2  -09.73    111.78     54.0  4.2   0.0   0.0   0.713        41
 PWJI       25.30   1.000   P
 SWJI       30.20   1.000   P
 TBJI       44.10   1.000   P
 GRJI       44.30   1.000   P
 UWJI       50.40   1.000   P
 BWJI       58.70   1.000   P
# 2017 04 11 22 20 37.3  -09.33    112.83     10.0  2.8   0.0   0.0   0.887        42
 GMJI       22.20   1.000   P
 PWJI       28.00   1.000   P
 SWJI       33.10   1.000   P
 GMJI       39.40   1.000   S
 PWJI       49.80   1.000   S
# 2017 04 13 11 00 47.7  -09.02    112.85     23.0  3.2   0.0   0.0   0.446        43
 GMJI       17.50   1.000   P
 PWJI       23.80   1.000   P
 SWJI       28.00   1.000   P
 GMJI       30.70   1.000   S
# 2017 04 14 04 36 21.5  -09.66    112.86     30.0  4.4   0.0   0.0   1.212        44
 GMJI       24.10   1.000   P
 PWJI       28.80   1.000   P
 SWJI       32.90   1.000   P
 GRJI       41.70   1.000   P
 GMJI       41.90   1.000   S
 NGJI       42.80   1.000   P
 TBJI       46.90   1.000   P
 PWJI       53.00   1.000   S
 UWJI       53.40   1.000   P
 BWJI       57.40   1.000   P
 NGJI       73.20   1.000   S
 TBJI       83.10   1.000   S
# 2017 04 14 05 26 09.8  -09.51    112.79     24.0  3.4   0.0   0.0   0.690        45
 GMJI       23.60   1.000   P
 PWJI       29.10   1.000   P
 SWJI       31.80   1.000   P
 GRJI       41.10   1.000   P
 GMJI       42.00   1.000   S
 PWJI       52.30   1.000   S
# 2017 04 14 08 54 58.8  -09.59    112.83     25.0  3.6   0.0   0.0   0.934        46
 GMJI       24.40   1.000   P
 PWJI       29.60   1.000   P
 SWJI       32.90   1.000   P
 GRJI       41.20   1.000   P
 GMJI       42.90   1.000   S
 PWJI       53.00   1.000   S
# 2017 04 14 09 13 08.8  -09.62    112.80     10.0  3.7   0.0   0.0   1.003        47
 GMJI       25.10   1.000   P
 PWJI       31.50   1.000   P
 SWJI       34.80   1.000   P
 GRJI       45.40   1.000   P
# 2017 04 14 12 49 03.7  -09.34    112.86     17.0  3.9   0.0   0.0   0.662        48
 GMJI       21.70   1.000   P
 PWJI       28.00   1.000   P
 SWJI       31.70   1.000   P
 GRJI       37.80   1.000   P
 GMJI       38.30   1.000   S
 NGJI       39.80   1.000   P
 PWJI       49.80   1.000   S
# 2017 04 15 09 24 20.6  -09.50    112.73     13.0  3.4   0.0   0.0   0.647        49
 GMJI       25.00   1.000   P
 PWJI       29.80   1.000   P
 SWJI       33.70   1.000   P
 PWJI       51.40   1.000   S
# 2017 04 15 10 55 14.3  -11.21    111.80     10.0  4.4   0.0   0.0   0.910        50
 PWJI       49.50   1.000   P
 GMJI       52.80   1.000   P
 SWJI       53.40   1.000   P
 PWJI       87.10   1.000   S
# 2017 04 16 02 56 06.2  -09.26    112.88     24.0  3.8   0.0   0.0   1.005        51
 GMJI       19.40   1.000   P
 PWJI       25.80   1.000   P
 SWJI       29.70   1.000   P
 GMJI       33.90   1.000   S
 NGJI       35.90   1.000   P
 GRJI       38.00   1.000   P
 TBJI       40.80   1.000   P
 PWJI       46.30   1.000   S
 BWJI       52.00   1.000   P
 UWJI       52.50   1.000   P
 SWJI       53.80   1.000   S
 NGJI       66.60   1.000   S
 GRJI       66.70   1.000   S
 TBJI       74.00   1.000   S
 UWJI       90.90   1.000   S
# 2017 04 16 16 23 35.5  -07.96    110.47     10.0  2.4   0.0   0.0   0.376        52
 SWJI       23.80   1.000   P
 PWJI       24.00   1.000   P
 UWJI       28.90   1.000   P
# 2017 04 16 20 56 10.6  -07.34    112.17    233.0  3.8   0.0   0.0   0.814        53
 SWJI       30.90   1.000   P
 TBJI       31.70   1.000   P
 GRJI       31.90   1.000   P
 PWJI       32.00   1.000   P
 NGJI       33.10   1.000   P
 GMJI       37.10   1.000   P
 UWJI       37.10   1.000   P
 BWJI       37.40   1.000   P
 GRJI       56.30   1.000   S
 SWJI       56.90   1.000   S
 TBJI       56.90   1.000   S
 PWJI       57.10   1.000   S
 NGJI       60.20   1.000   S
 UWJI       65.90   1.000   S
 BWJI       67.30   1.000   S
# 2017 04 17 00 25 45.3  -09.37    112.87     15.0  3.2   0.0   0.0   0.464        54
 GMJI       22.60   1.000   P
 PWJI       29.50   1.000   P
# 2017 04 18 17 45 02.1  -09.53    111.77     10.0  3.6   0.0   0.0   0.548        55
 PWJI       26.00   1.000   P
 SWJI       30.80   1.000   P
 GMJI       34.80   1.000   P
# 2017 04 19 18 12 03.8  -08.67    112.78    103.0  2.9   0.0   0.0   0.205        56
 GMJI       19.00   1.000   P
 PWJI       22.80   1.000   P
 SWJI       24.90   1.000   P
 GMJI       34.00   1.000   S
 PWJI       39.90   1.000   S
 SWJI       44.20   1.000   S
# 2017 04 21 03 38 47.6  -09.70    111.66     10.0  4.0   0.0   0.0   1.281        57
 PWJI       27.90   1.000   P
 SWJI       32.80   1.000   P
 GMJI       36.10   1.000   P
 NGJI       39.70   1.000   P
 TBJI       44.90   1.000   P
 GRJI       46.30   1.000   P
 PWJI       49.30   1.000   S
 UWJI       52.60   1.000   P
# 2017 04 21 20 49 03.9  -09.72    112.89     44.0  4.4   0.0   0.0   1.011        58
 GMJI       23.20   1.000   P
 PWJI       30.00   1.000   P
 SWJI       33.50   1.000   P
 GRJI       42.40   1.000   P
 NGJI       43.40   1.000   P
 TBJI       46.00   1.000   P
 PWJI       55.30   1.000   S
 BWJI       56.50   1.000   P
# 2017 04 22 16 23 17.4  -09.61    112.73     10.0  3.6   0.0   0.0   0.983        59
 GMJI       26.80   1.000   P
 PWJI       30.80   1.000   P
 SWJI       35.20   1.000   P
 GRJI       44.20   1.000   P
 GMJI       46.60   1.000   S
 PWJI       54.00   1.000   S
# 2017 04 25 04 36 02.3  -07.04    111.86     11.0  3.3   0.0   0.0   0.559        60
 TBJI        5.00   1.000   P
 TBJI        9.80   1.000   S
 NGJI       11.60   1.000   P
 GRJI       12.40   1.000   P
 SWJI       13.60   1.000   P
 PWJI       17.90   1.000   P
 UWJI       21.20   1.000   P
 GRJI       22.10   1.000   S
 SWJI       24.30   1.000   S
 BWJI       26.40   1.000   P
 PWJI       31.90   1.000   S
 GMJI       33.40   1.000   P
# 2017 04 27 07 03 14.1  -08.79    112.50     48.0  4.7   0.0   0.0   0.950        61
 PWJI       17.10   1.000   P
 GMJI       17.40   1.000   P
 SWJI       20.70   1.000   P
 GRJI       29.30   1.000   P
 NGJI       29.30   1.000   P
 PWJI       30.70   1.000   S
 TBJI       32.00   1.000   P
 GMJI       32.80   1.000   S
 SWJI       37.40   1.000   S
 UWJI       41.80   1.000   P
 BWJI       44.00   1.000   P
 GRJI       52.20   1.000   S
 TBJI       56.60   1.000   S
# 2017 04 27 10 24 52.8  -08.98    110.46     28.0  3.3   0.0   0.0   0.455        62
 PWJI       27.30   1.000   P
 SWJI       28.90   1.000   P
 GMJI       46.20   1.000   P
 PWJI       46.80   1.000   S
 SWJI       51.40   1.000   S
# 2017 04 28 01 49 28.6  -08.07    111.72    118.0  3.4   0.0   0.0   0.741        63
 PWJI       16.30   1.000   P
 SWJI       17.20   1.000   P
 NGJI       20.70   1.000   P
 TBJI       24.30   1.000   P
 GRJI       25.50   1.000   P
 PWJI       29.50   1.000   S
 GMJI       29.60   1.000   P
 UWJI       30.70   1.000   P
 GRJI       46.30   1.000   S
 UWJI       54.50   1.000   S
# 2017 04 29 01 38 49.8  -09.72    111.69     10.0  3.9   0.0   0.0   1.111        64
 PWJI       27.00   1.000   P
 SWJI       32.90   1.000   P
 GMJI       36.70   1.000   P
 NGJI       41.50   1.000   P
 GRJI       46.00   1.000   P
# 2017 04 29 10 02 14.9  -09.72    111.80     22.0  5.5   0.0   0.0   1.502        65
 PWJI       25.60   1.000   P
 SWJI       30.20   1.000   P
 GMJI       32.20   1.000   P
 NGJI       39.30   1.000   P
 GRJI       43.50   1.000   P
 PWJI       50.40   1.000   S
 UWJI       52.30   1.000   P
 SWJI       58.60   1.000   S
 BWJI       59.20   1.000   P
 GMJI       61.50   1.000   S
 UWJI       91.40   1.000   S
# 2017 04 29 10 59 09.6  -09.95    111.70     10.0  3.8   0.0   0.0   1.192        66
 PWJI       31.10   1.000   P
 SWJI       34.90   1.000   P
 GMJI       37.20   1.000   P
 NGJI       43.40   1.000   P
 GRJI       49.40   1.000   P
# 2017 04 29 11 46 57.9  -09.84    111.75     10.0  3.7   0.0   0.0   1.064        67
 PWJI       28.70   1.000   P
 SWJI       33.10   1.000   P
 GMJI       37.60   1.000   P
 NGJI       42.00   1.000   P
 GRJI       47.10   1.000   P
 SWJI       63.40   1.000   S
# 2017 04 29 13 08 35.2  -09.80    111.81     10.0  3.9   0.0   0.0   1.168        68
 PWJI       28.80   1.000   P
 SWJI       34.10   1.000   P
 GMJI       35.60   1.000   P
 NGJI       42.40   1.000   P
 GRJI       46.80   1.000   P
 UWJI       54.00   1.000   P
 PWJI       54.20   1.000   S
 GMJI       65.60   1.000   S
# 2017 04 29 13 17 49.5  -09.42    111.82     10.0  3.3   0.0   0.0   0.905        69
 PWJI       24.10   1.000   P
 SWJI       29.00   1.000   P
 GMJI       33.80   1.000   P
 NGJI       35.60   1.000   P
