# 2017 08 18 08 44 28.8  -11.18    112.21     10.0  4.6   0.0   0.0   1.426       145
 PWJI       48.60   1.000   P
 GMJI       49.40   1.000   P
 SWJI       53.10   1.000   P
 WOJI       54.50   1.000   P
# 2017 08 19 16 00 44.4  -08.64    112.36    127.0  3.8   0.0   0.0   0.457       146
 SWJI       23.70   1.000   P
 GMJI       24.00   1.000   P
 WOJI       29.90   1.000   P
 UWJI       41.00   1.000   P
# 2017 08 19 21 22 22.2  -09.58    111.91     82.0  4.0   0.0   0.0   0.680       147
 SWJI       28.80   1.000   P
 GMJI       30.70   1.000   P
 WOJI       32.00   1.000   P
 GRJI       41.70   1.000   P
 UWJI       49.50   1.000   P
# 2017 08 19 23 49 06.6  -09.08    110.47     10.0  3.5   0.0   0.0   0.847       148
 WOJI       22.90   1.000   P
 SWJI       31.30   1.000   P
 UWJI       42.90   1.000   P
 GRJI       45.30   1.000   P
 GMJI       49.40   1.000   P
# 2017 08 21 15 28 08.6  -08.85    110.23     10.0  3.6   0.0   0.0   0.649       149
 WOJI       22.10   1.000   P
 SWJI       32.40   1.000   P
 UWJI       40.40   1.000   P
 GMJI       51.00   1.000   P
# 2017 08 24 05 33 21.9  -09.24    112.89     10.0  3.6   0.0   0.0   0.862       150
 GMJI       21.20   1.000   P
 GMJI       35.80   1.000   S
 WOJI       37.90   1.000   P
 NGJI       39.20   1.000   P
# 2017 08 27 00 02 21.6  -10.44    111.04     10.0  5.1   0.0   0.0   1.453       151
 WOJI       41.50   1.000   P
 SWJI       44.00   1.000   P
 GMJI       49.40   1.000   P
 NGJI       51.30   1.000   P
 GRJI       58.40   1.000   P
 UWJI       61.70   1.000   P
# 2017 08 27 00 14 11.8  -10.21    111.12     10.0  4.3   0.0   0.0   1.034       152
 WOJI       38.80   1.000   P
 SWJI       42.20   1.000   P
 GMJI       48.10   1.000   P
 WOJI       68.70   1.000   S
 SWJI       73.90   1.000   S
 GMJI       82.50   1.000   S
# 2017 08 27 03 39 30.8  -09.05    110.23     10.0  3.5   0.0   0.0   0.442       153
 WOJI       24.60   1.000   P
 SWJI       33.90   1.000   P
 NGJI       35.20   1.000   P
 GMJI       51.10   1.000   P
# 2017 08 27 19 10 39.5  -08.72    110.92     14.0  3.4   0.0   0.0   0.865       154
 WOJI       16.90   1.000   P
 SWJI       22.70   1.000   P
 NGJI       27.60   1.000   P
 WOJI       28.40   1.000   S
 GRJI       38.20   1.000   P
 UWJI       39.20   1.000   P
 SWJI       39.80   1.000   S
 GMJI       41.20   1.000   P
# 2017 08 29 23 04 55.8  -09.29    110.86     10.0  3.7   0.0   0.0   0.653       155
 WOJI       25.40   1.000   P
 SWJI       30.50   1.000   P
 NGJI       34.90   1.000   P
 GMJI       44.40   1.000   P
 GRJI       45.90   1.000   P
# 2017 09 01 03 47 34.8  -11.41    112.85     10.0  4.7   0.0   0.0   1.383       156
 GMJI       49.60   1.000   P
 SWJI       59.80   1.000   P
 WOJI       61.50   1.000   P
 NGJI       65.40   1.000   P
# 2017 09 06 22 20 05.2  -07.56    110.39     92.0  2.8   0.0   0.0   0.940       157
 WOJI       17.20   1.000   P
 SWJI       26.10   1.000   P
# 2017 09 09 16 13 19.6  -10.65    112.24     10.0  4.0   0.0   0.0   0.616       158
 GMJI       43.00   1.000   P
 SWJI       46.40   1.000   P
 WOJI       49.00   1.000   P
 NGJI       52.20   1.000   P
 GMJI       75.00   1.000   S
 SWJI       82.50   1.000   S
 WOJI       86.40   1.000   S
# 2017 09 13 05 34 38.9  -09.45    112.85     10.0  3.0   0.0   0.0   0.726       159
 GMJI       23.60   1.000   P
 PWJI       29.80   1.000   P
 GMJI       42.00   1.000   S
 PWJI       52.70   1.000   S
# 2017 09 13 19 37 26.2  -06.18    112.93    587.0  4.6   0.0   0.0   0.996       160
 BWJI       68.50   1.000   P
 GRJI       70.40   1.000   P
 SWJI       73.20   1.000   P
 GMJI       73.30   1.000   P
 NGJI       74.40   1.000   P
 WOJI       75.60   1.000   P
# 2017 09 15 11 19 59.2  -09.50    112.78     10.0  2.9   0.0   0.0   0.297       161
 GMJI       24.60   1.000   P
 PWJI       30.00   1.000   P
 SWJI       34.60   1.000   P
# 2017 09 20 23 59 24.7  -06.16    112.95    592.0  5.7   0.0   0.0   1.096       162
 BWJI       69.30   1.000   P
 GRJI       71.00   1.000   P
 GMJI       73.40   1.000   P
 UWJI       73.90   1.000   P
 SWJI       74.10   1.000   P
 NGJI       75.30   1.000   P
 WOJI       75.70   1.000   P
# 2017 09 24 08 58 27.2  -08.11    110.44     10.0  2.8   0.0   0.0   0.652       163
 WOJI       10.50   1.000   P
 NGJI       24.00   1.000   P
# 2017 09 24 17 41 46.4  -09.27    110.82     10.0  3.7   0.0   0.0   0.944       164
 WOJI       24.40   1.000   P
 SWJI       29.90   1.000   P
 NGJI       36.40   1.000   P
 GMJI       44.90   1.000   P
 GRJI       45.50   1.000   P
 BWJI       60.20   1.000   P
# 2017 09 28 03 13 26.1  -09.10    111.28     10.0  3.7   0.0   0.0   0.819       165
 WOJI       23.80   1.000   P
 SWJI       25.90   1.000   P
 GMJI       38.20   1.000   P
 GRJI       41.30   1.000   P
# 2017 09 30 07 21 51.1  -09.01    110.19     10.0  3.6   0.0   0.0   0.356       166
 WOJI       24.50   1.000   P
 PWJI       31.70   1.000   P
 SWJI       34.40   1.000   P
 NGJI       34.90   1.000   P
 UWJI       43.40   1.000   P
# 2017 10 02 00 07 29.8  -09.33    112.17     10.0  3.3   0.0   0.0   1.490       167
 GMJI       26.60   1.000   P
 SWJI       29.10   1.000   P
 NGJI       32.40   1.000   P
 WOJI       33.70   1.000   P
 SWJI       50.20   1.000   S
# 2017 10 03 14 46 46.7  -09.84    112.93     10.0  3.8   0.0   0.0   0.289       168
 GMJI       28.40   1.000   P
 SWJI       39.20   1.000   P
 WOJI       45.10   1.000   P
# 2017 10 10 11 29 50.4  -08.82    111.24     30.0  3.5   0.0   0.0   0.638       169
 WOJI       18.20   1.000   P
 SWJI       20.70   1.000   P
 NGJI       24.70   1.000   P
 WOJI       31.80   1.000   S
 GMJI       35.10   1.000   P
 GRJI       36.20   1.000   P
 SWJI       37.10   1.000   S
# 2017 10 11 13 56 45.9  -08.36    110.10     10.0  2.9   0.0   0.0   0.542       170
 WOJI       17.90   1.000   P
 SWJI       31.30   1.000   P
# 2017 10 14 05 35 38.2  -10.87    112.24     26.0  4.7   0.0   0.0   0.824       171
 GMJI       42.60   1.000   P
 SWJI       46.30   1.000   P
 WOJI       48.40   1.000   P
 NGJI       54.90   1.000   P
 GRJI       58.60   1.000   P
 BWJI       72.70   1.000   P
 NGJI       96.20   1.000   S
# 2017 10 14 06 06 58.3  -10.87    112.26     22.0  4.9   0.0   0.0   0.624       172
 GMJI       42.90   1.000   P
 SWJI       46.60   1.000   P
 WOJI       49.40   1.000   P
 NGJI       55.20   1.000   P
 GRJI       59.00   1.000   P
 NGJI       95.80   1.000   S
# 2017 10 14 14 03 32.1  -10.85    112.28     35.0  4.8   0.0   0.0   0.886       173
 GMJI       42.00   1.000   P
 SWJI       45.80   1.000   P
 WOJI       48.20   1.000   P
 NGJI       54.00   1.000   P
 GRJI       57.70   1.000   P
 BWJI       71.90   1.000   P
# 2017 10 14 14 08 27.5  -10.83    112.24     15.0  4.6   0.0   0.0   0.627       174
 GMJI       44.00   1.000   P
 SWJI       47.30   1.000   P
 WOJI       49.90   1.000   P
 NGJI       54.20   1.000   P
 GRJI       59.60   1.000   P
# 2017 10 14 14 09 49.6  -10.86    112.18     10.0  4.8   0.0   0.0   0.706       175
 GMJI       44.30   1.000   P
 SWJI       48.50   1.000   P
 WOJI       50.80   1.000   P
 NGJI       56.30   1.000   P
 GRJI       60.30   1.000   P
# 2017 10 15 03 57 53.7  -10.85    112.21     10.0  4.0   0.0   0.0   0.476       176
 GMJI       44.50   1.000   P
 WOJI       51.20   1.000   P
 UWJI       69.50   1.000   P
 BWJI       74.90   1.000   P
# 2017 10 15 10 48 11.7  -10.80    112.26     10.0  4.1   0.0   0.0   0.514       177
 GMJI       44.50   1.000   P
 SWJI       48.50   1.000   P
 WOJI       50.70   1.000   P
 GRJI       59.90   1.000   P
# 2017 10 15 10 56 12.3  -10.81    112.27     10.0  4.2   0.0   0.0   0.643       178
 GMJI       44.20   1.000   P
 SWJI       48.00   1.000   P
 WOJI       50.50   1.000   P
 GRJI       59.10   1.000   P
# 2017 10 19 03 49 15.1  -07.02    111.95     10.0  4.0   0.0   0.0   0.502       179
 GRJI       10.50   1.000   P
 NGJI       12.20   1.000   P
 SWJI       14.20   1.000   P
 GRJI       19.20   1.000   S
 WOJI       23.10   1.000   P
 BWJI       24.80   1.000   P
 GMJI       32.90   1.000   P
 WOJI       42.20   1.000   S
 BWJI       43.90   1.000   S
# 2017 10 22 13 57 10.7  -08.65    112.88     89.0  3.0   0.0   0.0   0.316       180
 GMJI       15.80   1.000   P
 SWJI       24.40   1.000   P
 GMJI       30.10   1.000   S
 WOJI       33.10   1.000   P
# 2017 10 25 16 35 37.8  -09.72    112.89     45.0  4.9   0.0   0.0   1.129       181
 GMJI       23.10   1.000   P
 SWJI       34.40   1.000   P
 WOJI       41.00   1.000   P
 GRJI       43.30   1.000   P
 NGJI       43.50   1.000   P
 BWJI       56.60   1.000   P
# 2017 10 25 17 19 58.4  -09.73    112.85     53.0  4.9   0.0   0.0   1.368       182
 GMJI       23.40   1.000   P
 SWJI       34.80   1.000   P
 WOJI       41.30   1.000   P
 NGJI       43.20   1.000   P
 GRJI       43.40   1.000   P
 BWJI       57.50   1.000   P
# 2017 10 25 17 27 31.5  -09.72    112.88     33.0  3.6   0.0   0.0   0.985       183
 GMJI       23.50   1.000   P
 SWJI       35.10   1.000   P
 WOJI       40.70   1.000   P
 NGJI       43.50   1.000   P
 WOJI       71.90   1.000   S
# 2017 10 25 17 43 00.3  -09.74    112.89     23.0  3.4   0.0   0.0   0.678       184
 GMJI       25.20   1.000   P
 SWJI       36.30   1.000   P
 WOJI       43.20   1.000   P
 WOJI       74.90   1.000   S
# 2017 10 25 17 48 13.7  -09.65    112.94     35.0  4.3   0.0   0.0   0.966       185
 GMJI       22.20   1.000   P
 SWJI       33.70   1.000   P
 WOJI       40.20   1.000   P
 GRJI       43.00   1.000   P
 NGJI       43.30   1.000   P
# 2017 10 25 20 38 51.3  -09.57    112.88     11.0  3.7   0.0   0.0   0.554       186
 GMJI       23.90   1.000   P
 SWJI       35.80   1.000   P
 WOJI       41.80   1.000   P
 NGJI       42.80   1.000   P
 GRJI       43.20   1.000   P
 WOJI       73.20   1.000   S
# 2017 10 25 22 04 05.4  -09.63    112.93     10.0  4.3   0.0   0.0   0.991       187
 GMJI       24.30   1.000   P
 SWJI       36.50   1.000   P
 WOJI       42.50   1.000   P
 GMJI       43.80   1.000   S
 NGJI       45.10   1.000   P
 GRJI       45.50   1.000   P
 BWJI       58.90   1.000   P
# 2017 10 26 02 39 07.5  -08.50    110.76     10.0  3.8   0.0   0.0   0.669       188
 WOJI       12.50   1.000   P
 SWJI       22.50   1.000   P
 NGJI       26.10   1.000   P
 GRJI       37.90   1.000   P
 GMJI       43.50   1.000   P
# 2017 10 27 05 53 57.7  -08.76    110.80     90.0  3.7   0.0   0.0   0.686       189
 WOJI       18.80   1.000   P
 SWJI       24.50   1.000   P
 WOJI       33.30   1.000   S
 GMJI       41.20   1.000   P
 SWJI       43.50   1.000   S
 GRJI       68.20   1.000   P
# 2017 10 29 01 53 32.3  -10.62    111.79     10.0  4.1   0.0   0.0   0.898       190
 SWJI       44.50   1.000   P
 WOJI       45.00   1.000   P
 GMJI       45.20   1.000   P
 NGJI       50.20   1.000   P
# 2017 11 02 16 47 52.6  -09.65    112.86     10.0  3.6   0.0   0.0   0.426       191
 GMJI       25.40   1.000   P
 SWJI       36.10   1.000   P
 WOJI       42.00   1.000   P
 GRJI       43.90   1.000   P
# 2017 11 02 19 38 30.5  -09.51    110.56     10.0  3.5   0.0   0.0   1.219       192
 WOJI       28.50   1.000   P
 SWJI       35.60   1.000   P
 GMJI       49.50   1.000   P
# 2017 11 05 13 49 46.8  -08.03    110.55     10.0  1.9   0.0   0.0   0.455       193
 WOJI        9.60   1.000   P
 WOJI       15.20   1.000   S
# 2017 11 10 06 54 35.6  -09.45    112.84     19.0  4.1   0.0   0.0   0.949       194
 GMJI       22.90   1.000   P
 SWJI       33.30   1.000   P
 GRJI       38.70   1.000   P
 GMJI       39.30   1.000   S
 WOJI       39.80   1.000   P
 NGJI       41.90   1.000   P
# 2017 11 15 07 02 17.2  -09.41    112.46     63.0  3.6   0.0   0.0   0.688       195
 GMJI       24.30   1.000   P
 SWJI       28.60   1.000   P
 WOJI       35.40   1.000   P
# 2017 11 15 20 11 56.5  -08.37    111.33     87.0  3.6   0.0   0.0   0.647       196
 PWJI       15.60   1.000   P
 SWJI       17.10   1.000   P
 WOJI       17.30   1.000   P
 NGJI       20.40   1.000   P
 GRJI       28.60   1.000   P
 WOJI       29.40   1.000   S
 GMJI       33.60   1.000   P
 NGJI       34.40   1.000   S
 BWJI       42.50   1.000   P
# 2017 11 16 11 30 18.8  -09.32    112.91     30.0  3.5   0.0   0.0   0.860       197
 GMJI       18.90   1.000   P
 SWJI       30.80   1.000   P
 NGJI       37.10   1.000   P
 WOJI       37.70   1.000   P
 SWJI       54.70   1.000   S
 WOJI       67.60   1.000   S
# 2017 11 21 17 38 57.6  -09.52    112.89     10.0  3.9   0.0   0.0   0.349       198
 SWJI       35.30   1.000   P
 NGJI       41.40   1.000   P
 WOJI       41.50   1.000   P
 GRJI       42.70   1.000   P
 SWJI       62.10   1.000   S
# 2017 11 21 17 40 50.8  -09.80    112.86     39.0  4.7   0.0   0.0   0.767       199
 PWJI       32.70   1.000   P
 SWJI       34.80   1.000   P
 WOJI       41.40   1.000   P
 NGJI       42.60   1.000   P
 GRJI       42.70   1.000   P
 BWJI       57.80   1.000   P
 SWJI       64.20   1.000   S
# 2017 11 27 13 54 44.7  -09.15    111.16     10.0  3.7   0.0   0.0   0.715       200
 WOJI       22.90   1.000   P
 SWJI       26.30   1.000   P
 NGJI       32.90   1.000   P
# 2017 11 30 15 09 06.8  -08.94    111.93     27.0  3.4   0.0   0.0   0.378       201
 SWJI       21.00   1.000   P
 SWJI       36.90   1.000   S
# 2017 11 30 18 43 56.5  -09.64    112.92     31.0  4.9   0.0   0.0   0.616       202
 SWJI       33.50   1.000   P
 WOJI       41.60   1.000   P
 BWJI       56.50   1.000   P
# 2017 12 01 06 07 41.3  -09.53    112.84     10.0  3.5   0.0   0.0   0.462       203
 SWJI       35.70   1.000   P
# 2017 12 01 14 39 35.5  -09.63    112.81     10.0  3.5   0.0   0.0   0.603       204
 SWJI       36.60   1.000   P
# 2017 12 07 20 48 23.5  -09.62    112.86     10.0  3.9   0.0   0.0   0.438       205
 SWJI       35.50   1.000   P
 NGJI       43.20   1.000   P
 BWJI       57.90   1.000   P
# 2017 12 07 20 51 19.7  -09.79    112.82     10.0  4.3   0.0   0.0   0.511       206
 PWJI       34.40   1.000   P
 SWJI       37.30   1.000   P
 NGJI       45.20   1.000   P
 BWJI       60.40   1.000   P
# 2017 12 09 09 54 32.3  -09.35    112.25     10.0  3.7   0.0   0.0   0.978       207
 SWJI       27.60   1.000   P
 NGJI       37.50   1.000   P
# 2017 12 10 17 22 51.1  -09.16    111.51     34.0  3.7   0.0   0.0   0.798       208
 SWJI       24.00   1.000   P
 NGJI       29.00   1.000   P
# 2017 12 11 02 37 23.3  -08.35    111.76    123.0  3.3   0.0   0.0   0.292       209
 SWJI       19.50   1.000   P
 UWJI       34.20   1.000   P
# 2017 12 11 06 31 11.2  -08.93    111.40     10.0  3.5   0.0   0.0   0.404       210
 SWJI       22.90   1.000   P
 NGJI       48.10   1.000   P
# 2017 12 13 17 17 29.9  -08.70    110.51     22.0  3.1   0.0   0.0   0.323       211
 SWJI       25.40   1.000   P
 NGJI       26.80   1.000   P
# 2017 12 16 08 02 55.5  -08.60    110.27     10.0  3.8   0.0   0.0   0.868       212
 SWJI       29.20   1.000   P
 NGJI       31.40   1.000   P
# 2017 12 23 02 26 52.1  -09.88    112.89     10.0  4.0   0.0   0.0   0.597       213
 SWJI       40.40   1.000   P
 NGJI       46.10   1.000   P
# 2017 12 23 21 22 38.9  -09.06    112.36     25.0  4.5   0.0   0.0   0.837       214
 SWJI       24.40   1.000   P
 SWJI       42.60   1.000   S
 BWJI       50.10   1.000   P
 BWJI       86.50   1.000   S
# 2017 12 25 18 30 14.6  -09.58    112.80     10.0  3.9   0.0   0.0   0.709       215
 PWJI       30.30   1.000   P
 SWJI       34.70   1.000   P
 NGJI       42.30   1.000   P
 SWJI       63.10   1.000   S
 NGJI       73.20   1.000   S
# 2017 12 25 18 44 02.8  -09.72    112.76     24.0  3.5   0.0   0.0   0.420       216
 PWJI       31.10   1.000   P
 SWJI       35.50   1.000   P
 NGJI       42.10   1.000   P
 PWJI       55.80   1.000   S
 SWJI       62.20   1.000   S
# 2017 12 27 12 58 02.7  -08.74    110.40     29.0  3.2   0.0   0.0   0.931       217
 SWJI       27.60   1.000   P
# 2017 12 28 13 08 02.5  -09.73    112.88     58.0  4.8   0.0   0.0   0.839       218
 SWJI       34.00   1.000   P
 NGJI       41.80   1.000   P
 BWJI       56.50   1.000   P
# 2017 12 28 17 49 56.2  -08.79    112.47     27.0  3.1   0.0   0.0   0.451       219
 SWJI       22.20   1.000   P
 SWJI       38.70   1.000   S
# 2017 12 29 22 15 53.1  -09.04    111.18     10.0  4.1   0.0   0.0   1.013       220
 SWJI       25.70   1.000   P
 SWJI       42.60   1.000   S
# 2017 12 30 07 54 02.1  -09.77    112.86     10.0  4.2   0.0   0.0   0.765       221
 SWJI       37.80   1.000   P
 NGJI       45.20   1.000   P
# 2017 12 30 11 26 08.9  -09.80    112.87     10.0  4.0   0.0   0.0   0.740       222
 SWJI       39.50   1.000   P
 NGJI       45.70   1.000   P
# 2017 12 31 21 03 55.3  -05.80    110.68    536.0  4.3   0.0   0.0   0.716       223
 BWJI       68.30   1.000   P
 NGJI       69.30   1.000   P
 SWJI       70.00   1.000   P
